{
  "elements": [
    {
      "type": "node",
      "id": 21068295,
      "lat": 40.4167047,
      "lon": -3.7035825,
      "tags": {
        "admin_level": "2",
        "capital": "yes",
        "ele": "655",
        "is_capital": "country",
        "name": "Madrid",
        "name:ab": "ĞœaĞ´Ñ€Ğ¸Ğ´",
        "name:am": "áˆ›á‹µáˆªá‹µ",
        "name:an": "Madrit",
        "name:ar": "Ù…Ø¯Ø±ÙŠØ¯",
        "name:arc": "Ü¡Ü•ÜªÜÜ•",
        "name:arz": "Ù…Ø¯Ø±ÙŠØ¯",
        "name:ba": "ĞœĞ°Ğ´Ñ€Ğ¸Ğ´",
        "name:bat-smg": "Madrids",
        "name:be": "ĞœĞ°Ğ´Ñ€Ñ‹Ğ´",
        "name:be-tarask": "ĞœĞ°Ğ´Ñ€Ñ‹Ğ´",
        "name:bg": "ĞœĞ°Ğ´Ñ€Ğ¸Ğ´",
        "name:bn": "à¦®à¦¾à¦¦à§à¦°à¦¿à¦¦",
        "name:bo": "à½˜à¼‹à½‘à¼‹à½¢à½²à½‘à¼",
        "name:br": "Madrid",
        "name:ca": "Madrid",
        "name:ckb": "Ù…Ø§Ø¯Ø±ÛŒØ¯",
        "name:co": "Madridi",
        "name:cs": "Madrid",
        "name:cv": "ĞœĞ°Ğ´Ñ€Ğ¸Ğ´",
        "name:de": "Madrid",
        "name:el": "ÎœÎ±Î´ÏÎ¯Ï„Î·",
        "name:en": "Madrid",
        "name:eo": "Madrido",
        "name:es": "Madrid",
        "name:eu": "Madril",
        "name:ext": "Mairil",
        "name:fa": "Ù…Ø§Ø¯Ø±ÛŒØ¯",
        "name:fr": "Madrid",
        "name:ga": "Maidrid",
        "name:haw": "Makelika",
        "name:he": "××“×¨×™×“",
        "name:hi": "à¤®à¤¦à¥à¤°à¤¿à¤¦",
        "name:hu": "Madrid",
        "name:hy": "Õ„Õ¡Õ¤Ö€Õ«Õ¤",
        "name:is": "Madrid",
        "name:it": "Madrid",
        "name:ja": "ãƒãƒ‰ãƒªãƒ¼ãƒ‰",
        "name:ka": "áƒ›áƒáƒ“áƒ áƒ˜áƒ“áƒ˜",
        "name:kab": "Madrid",
        "name:kbd": "ĞœĞ°Ğ´Ñ€Ğ¸Ğ´",
        "name:kk": "ĞœĞ°Ğ´Ñ€Ğ¸Ğ´",
        "name:kn": "à²®à²¾à²¦à³à²°à²¿à²¦à³",
        "name:ko": "ë§ˆë“œë¦¬ë“œ",
        "name:koi": "ĞœĞ°Ğ´Ñ€Ğ¸Ğ´",
        "name:ku": "MadrÃ®d",
        "name:kv": "ĞœĞ°Ğ´Ñ€Ğ¸Ğ´",
        "name:ky": "ĞœĞ°Ğ´Ñ€Ğ¸Ğ´",
        "name:la": "Matritum",
        "name:lez": "ĞœĞ°Ğ´Ñ€Ğ¸Ğ´",
        "name:lt": "Madridas",
        "name:lv": "Madride",
        "name:mhr": "ĞœĞ°Ğ´Ñ€Ğ¸Ğ´",
        "name:mk": "ĞœĞ°Ğ´Ñ€Ğ¸Ğ´",
        "name:ml": "à´®à´¾à´¡àµà´°à´¿à´¡àµ",
        "name:mn": "ĞœĞ°Ğ´Ñ€Ğ¸Ğ´",
        "name:mr": "à¤®à¤¾à¤¦à¥à¤°à¤¿à¤¦",
        "name:mrj": "ĞœĞ°Ğ´Ñ€Ğ¸Ğ´",
        "name:myv": "ĞœĞ°Ğ´Ñ€Ğ¸Ğ´ Ğ¾Ñˆ",
        "name:mzn": "Ù…Ø§Ø¯Ø±ÛŒØ¯",
        "name:nds-nl": "Medrid",
        "name:no": "Madrid",
        "name:oc": "Madrid",
        "name:os": "ĞœĞ°Ğ´Ñ€Ğ¸Ğ´",
        "name:pl": "Madryt",
        "name:pnb": "Ù…ÛŒÚˆØ±Úˆ",
        "name:ru": "ĞœĞ°Ğ´Ñ€Ğ¸Ğ´",
        "name:rue": "ĞœĞ°Ğ´Ñ€Ñ–Ğ´",
        "name:sa": "à¤®à¤¦à¥à¤°à¤¿à¤¦à¥",
        "name:sah": "ĞœĞ°Ğ´Ñ€Ğ¸Ğ´",
        "name:sk": "Madrid",
        "name:sl": "Madrid",
        "name:sq": "Madridi",
        "name:sr": "ĞœĞ°Ğ´Ñ€Ğ¸Ğ´",
        "name:sv": "Madrid",
        "name:szl": "Madryt",
        "name:ta": "à®®à®¤à¯à®°à®¿à®¤à¯",
        "name:tet": "MadrÃ­d",
        "name:tg": "ĞœĞ°Ğ´Ñ€Ğ¸Ğ´",
        "name:th": "à¸¡à¸²à¸”à¸£à¸´à¸”",
        "name:udm": "ĞœĞ°Ğ´Ñ€Ğ¸Ğ´",
        "name:uk": "ĞœĞ°Ğ´Ñ€Ğ¸Ğ´",
        "name:ur": "Ù…ÛŒÚˆØ±Úˆ",
        "name:xmf": "áƒ›áƒáƒ“áƒ áƒ˜áƒ“áƒ˜",
        "name:yi": "×××“×¨×™×“",
        "name:yue": "é¦¬å¾·é‡Œ",
        "name:zh": "é¦¬å¾·é‡Œ/é©¬å¾·é‡Œ",
        "name:zh-Hans": "é©¬å¾·é‡Œ",
        "name:zh_pinyin": "MÇdÃ©lÇ",
        "old_name:ar": "Ù…Ø¬Ø±ÙŠØ·",
        "place": "city",
        "population": "3280782",
        "population:date": "2022",
        "rank": "10",
        "ref:ine": "28079000101",
        "source": "Instituto GeogrÃ¡fico Nacional",
        "source:date": "2011-06",
        "source:ele": "MDT5",
        "source:name": "NomenclÃ¡tor GeogrÃ¡fico de Municipios y Entidades de PoblaciÃ³n",
        "source:name:br": "same as name",
        "source:name:oc": "Lo CongrÃ¨s",
        "source:population": "Instituto Nacional de EstadÃ­stica",
        "wikidata": "Q2807",
        "wikipedia": "es:Madrid"
      }
    },
    {
      "type": "node",
      "id": 21323935,
      "lat": 38.3436365,
      "lon": -0.4881708,
      "tags": {
        "alt_name:gl": "Alacante",
        "capital": "6",
        "ele": "5",
        "name": "Alacant / Alicante",
        "name:ar": "Ø£Ù„ÙŠÙƒØ§Ù†ØªÙŠ",
        "name:be": "ĞĞ»Ñ–ĞºĞ°Ğ½Ñ‚Ñ",
        "name:ca": "Alacant",
        "name:cs": "Alicante",
        "name:de": "Alicante",
        "name:el": "Î‘Î»Î¹ÎºÎ¬Î½Ï„Îµ",
        "name:en": "Alicante",
        "name:es": "Alicante",
        "name:et": "Alicante",
        "name:eu": "Alacant",
        "name:fi": "Alicante",
        "name:fr": "Alicante",
        "name:gl": "Alacant",
        "name:hu": "Alicante",
        "name:it": "Alicante",
        "name:nl": "Alicante",
        "name:oc": "Alacant",
        "name:ro": "Alicante",
        "name:ru": "ĞĞ»Ğ¸ĞºĞ°Ğ½Ñ‚Ğµ",
        "name:sk": "Alicante",
        "name:sr": "ĞĞ»Ğ¸ĞºĞ°Ğ½Ñ‚Ğµ",
        "name:zh-Hans": "é˜¿åˆ©åç‰¹",
        "name:zh-Hant": "é˜¿åˆ©åç‰¹",
        "official_name": "Alacant / Alicante",
        "official_name:ca": "Alacant",
        "official_name:es": "Alicante",
        "place": "city",
        "population": "326198",
        "population:date": "2022",
        "ref:ine": "03014000201",
        "wikidata": "Q11959",
        "wikipedia": "ca:Alacant"
      }
    },
    {
      "type": "node",
      "id": 21750062,
      "lat": 37.8845813,
      "lon": -4.7760138,
      "tags": {
        "alt_name:en": "Cordova",
        "capital": "6",
        "ele": "106",
        "heritage": "1",
        "heritage:operator": "whc",
        "name": "CÃ³rdoba",
        "name:ar": "Ù‚Ø±Ø·Ø¨Ø©",
        "name:be": "ĞšĞ¾Ñ€Ğ´Ğ°Ğ²Ğ°",
        "name:bg": "ĞšĞ¾Ñ€Ğ´Ğ¾Ğ±Ğ°",
        "name:ca": "CÃ²rdova",
        "name:da": "Cordoba",
        "name:el": "ÎšÏŒÏÎ´Î¿Î²Î±",
        "name:en": "CÃ³rdoba",
        "name:es": "CÃ³rdoba",
        "name:eu": "Kordoba",
        "name:ext": "CÃ³rduba",
        "name:fr": "Cordoue",
        "name:he": "×§×•×¨×“×•×‘×”",
        "name:hu": "CÃ³rdoba",
        "name:id": "Kordoba",
        "name:it": "Cordova",
        "name:ja": "ã‚³ãƒ«ãƒ‰ãƒ",
        "name:kn": "à²•à³‹à²°à³à²¡à³Šà²¬",
        "name:lt": "Kordoba",
        "name:ml": "à´•àµ‹àµ¼à´¡àµ‹à´¬",
        "name:pl": "Kordoba",
        "name:pt": "CÃ³rdova",
        "name:ru": "ĞšĞ¾Ñ€Ğ´Ğ¾Ğ²Ğ°",
        "name:sr": "ĞšĞ¾Ñ€Ğ´Ğ¾Ğ±Ğ°",
        "name:uk": "ĞšĞ¾Ñ€Ğ´Ğ¾Ğ²Ğ°",
        "place": "city",
        "population": "286561",
        "population:date": "2022",
        "ref:ine": "14021000901",
        "ref:whc": "313",
        "source": "Instituto GeogrÃ¡fico Nacional",
        "source:date": "2011-06",
        "source:ele": "MDT5",
        "source:name": "NomenclÃ¡tor GeogrÃ¡fico de Municipios y Entidades de PoblaciÃ³n",
        "whc:criteria": "(i)(ii)(iii)(iv)",
        "whc:inscription_date": "1984",
        "wikidata": "Q5818",
        "wikipedia": "es:CÃ³rdoba (EspaÃ±a)"
      }
    },
    {
      "type": "node",
      "id": 21750065,
      "lat": 36.7213028,
      "lon": -4.4216366,
      "tags": {
        "alt_name:tr": "Malaga",
        "capital": "6",
        "ele": "8",
        "name": "MÃ¡laga",
        "name:ar": "Ù…Ø§Ù„Ù‚Ø©",
        "name:be": "ĞœĞ°Ğ»Ğ°Ğ³Ğ°",
        "name:ca": "MÃ laga",
        "name:de": "Malaga",
        "name:el": "ÎœÎ¬Î»Î±Î³Î±",
        "name:es": "MÃ¡laga",
        "name:fr": "Malaga",
        "name:he": "×××œ×’×”",
        "name:hu": "MÃ¡laga",
        "name:kn": "à²®à²¾à²²à²—",
        "name:lt": "Malaga",
        "name:lv": "Malaga",
        "name:pl": "Malaga",
        "name:ru": "ĞœĞ°Ğ»Ğ°Ğ³Ğ°",
        "name:sk": "Malaga",
        "name:sr": "ĞœĞ°Ğ»Ğ°Ğ³Ğ°",
        "name:tr": "MÃ¢leka",
        "name:zh": "é©¬æ‹‰åŠ ",
        "name:zh-Hans": "é©¬æ‹‰åŠ ",
        "name:zh-Hant": "é¦¬æ‹‰åŠ ",
        "old_name:la": "Malaca",
        "old_name:phn": "ğ¤Œğ¤‹ğ¤Šğ¤€",
        "place": "city",
        "population": "535561",
        "population:date": "2022",
        "ref:ine": "29067000502",
        "source": "Instituto GeogrÃ¡fico Nacional",
        "source:date": "2011-06",
        "source:ele": "MDT5",
        "source:name": "NomenclÃ¡tor GeogrÃ¡fico de Municipios y Entidades de PoblaciÃ³n",
        "wikidata": "Q116450968",
        "wikipedia": "es:MÃ¡laga"
      }
    },
    {
      "type": "node",
      "id": 26562214,
      "lat": 43.4620412,
      "lon": -3.8099719,
      "tags": {
        "capital": "4",
        "ele": "8",
        "name": "Santander",
        "name:ar": "Ø³Ø§Ù†ØªØ§Ù†Ø¯ÙŠØ±",
        "name:be": "Ğ¡Ğ°Ğ½Ñ‚Ğ°Ğ½Ğ´ÑÑ€",
        "name:bg": "Ğ¡Ğ°Ğ½Ñ‚Ğ°Ğ½Ğ´ĞµÑ€",
        "name:br": "Santander",
        "name:ca": "Santander",
        "name:el": "Î£Î±Î½Ï„Î±Î½Ï„Î­Ï",
        "name:en": "Santander",
        "name:eo": "Santandero",
        "name:es": "Santander",
        "name:fa": "Ø³Ø§Ù†ØªØ§Ù†Ø¯Ø±",
        "name:fr": "Santander",
        "name:he": "×¡× ×˜× ×“×¨",
        "name:hu": "Santander",
        "name:ja": "ã‚µãƒ³ã‚¿ãƒ³ãƒ‡ãƒ¼ãƒ«",
        "name:lt": "Santanderas",
        "name:os": "Ğ¡Ğ°Ğ½Ñ‚Ğ°Ğ½Ğ´ĞµÑ€",
        "name:ru": "Ğ¡Ğ°Ğ½Ñ‚Ğ°Ğ½Ğ´ĞµÑ€",
        "name:zh": "æ¡‘å¦å¾·",
        "place": "city",
        "population": "126045",
        "population:date": "2022",
        "postal_code": "39000-39012",
        "ref:ine": "39075000501",
        "source": "Instituto GeogrÃ¡fico Nacional",
        "source:ele": "MDT5",
        "source:name": "NomenclÃ¡tor GeogrÃ¡fico de Municipios y Entidades de PoblaciÃ³n",
        "source:name:br": "same as name",
        "wikidata": "Q12233",
        "wikipedia": "es:Santander (EspaÃ±a)"
      }
    },
    {
      "type": "node",
      "id": 27000762,
      "lat": 43.2630018,
      "lon": -2.9350039,
      "tags": {
        "capital": "6",
        "idee:name": "Bilbao",
        "ine:municipio": "48020",
        "name": "Bilbao",
        "name:an": "Bilbau",
        "name:ar": "Ø¨Ù„Ø¨Ø§Ùˆ",
        "name:be": "Ğ‘Ñ–Ğ»ÑŒĞ±Ğ°Ğ°",
        "name:bg": "Ğ‘Ğ¸Ğ»Ğ±Ğ°Ğ¾",
        "name:br": "Bilbo",
        "name:ca": "Bilbao",
        "name:ce": "Ğ‘Ğ¸Ğ»Ğ±Ğ°Ğ¾",
        "name:ckb": "Ø¨ÛŒÙ„Ø¨Ø§Ùˆ",
        "name:cy": "Bilbo",
        "name:el": "ÎœÏ€Î¹Î»Î¼Ï€Î¬Î¿",
        "name:es": "Bilbao",
        "name:eu": "Bilbo",
        "name:ext": "Bilbau",
        "name:fa": "Ø¨ÛŒÙ„Ø¨Ø§Ø¦Ùˆ",
        "name:fr": "Bilbao",
        "name:he": "×‘×™×œ×‘××•",
        "name:hu": "Bilbao",
        "name:hy": "Ô²Õ«Õ¬Õ¢Õ¡Õ¸",
        "name:ja": "ãƒ“ãƒ«ãƒã‚ª",
        "name:ka": "áƒ‘áƒ˜áƒšáƒ‘áƒáƒ",
        "name:kk": "Ğ‘Ğ¸Ğ»ÑŒĞ±Ğ°Ğ¾",
        "name:ko": "ë¹Œë°”ì˜¤",
        "name:la": "Bilbaum",
        "name:lt": "Bilbao",
        "name:mhr": "Ğ‘Ğ¸Ğ»ÑŒĞ±Ğ°Ğ¾",
        "name:mn": "Ğ‘Ğ¸Ğ»ÑŒĞ±Ğ°Ğ¾",
        "name:mr": "à¤¬à¤¿à¤²à¥à¤¬à¤¾à¤“",
        "name:os": "Ğ‘Ğ¸Ğ»ÑŒĞ±Ğ°Ğ¾",
        "name:pms": "Bilbo",
        "name:pt": "Bilbau",
        "name:ru": "Ğ‘Ğ¸Ğ»ÑŒĞ±Ğ°Ğ¾",
        "name:sr": "Ğ‘Ğ¸Ğ»Ğ±Ğ°Ğ¾",
        "name:th": "à¸šà¸´à¸¥à¸šà¸²à¹‚à¸­",
        "name:uk": "Ğ‘Ñ–Ğ»ÑŒĞ±Ğ°Ğ¾",
        "name:xmf": "áƒ‘áƒ˜áƒšáƒ‘áƒáƒ",
        "name:zh": "æ¯•å°”å·´é„‚",
        "name:zh-Hans": "æ¯•å°”å·´é„‚",
        "name:zh-Hant": "ç•¢çˆ¾å·´é„‚",
        "place": "city",
        "population": "344127",
        "population:date": "2022",
        "postal_code": "48001;48002;48003;48004;48005;48006;48007;48008;48009;48010;48011;48012;48013;48014;48015",
        "ref:ine": "48020000101",
        "website": "https://www.bilbao.eus",
        "wikidata": "Q8692",
        "wikipedia": "eu:Bilbo"
      }
    },
    {
      "type": "node",
      "id": 27000791,
      "lat": 42.8465088,
      "lon": -2.6724025,
      "tags": {
        "alt_name:el": "Î’Î¹Ï„ÏŒÏÎ¹Î±-Î“ÎºÎ±ÏƒÏ„Î­Î¹Ï‚;Î“ÎºÎ±ÏƒÏ„Î­Î¹Ï‚",
        "capital": "4",
        "ele": "539",
        "idee:name": "Vitoria-Gasteiz",
        "name": "Vitoria-Gasteiz",
        "name:ar": "ÙÙŠØªÙˆØ±ÙŠØ§-ØºØ§Ø³ØªÙŠØ²",
        "name:az": "Vitoriya-Qasteys",
        "name:azb": "Ø¨ÛŒØªÙˆØ±ÛŒØ§",
        "name:be": "Ğ’Ñ–Ñ‚Ğ¾Ñ€Ñ‹Ñ",
        "name:bg": "Ğ’Ğ¸Ñ‚Ğ¾Ñ€Ğ¸Ñ-Ğ“Ğ°ÑÑ‚ĞµĞ¹Ñ",
        "name:br": "Gasteiz",
        "name:ca": "VitÃ²ria",
        "name:el": "Î’Î¹Ï„ÏŒÏÎ¹Î±",
        "name:en": "Vitoria-Gasteiz",
        "name:es": "Vitoria",
        "name:eu": "Gasteiz",
        "name:ext": "VitÃ³ria",
        "name:fa": "Ø¨ÛŒØªÙˆØ±ÛŒØ§",
        "name:fr": "Vitoria-Gasteiz",
        "name:ga": "Vitoria-Gasteiz",
        "name:he": "×•×™×˜×•×¨×™×”",
        "name:hu": "Vitoria-Gasteiz",
        "name:hy": "ÕÕ«Õ¿Õ¸Ö€Õ«Õ¡",
        "name:ja": "ãƒ“ãƒˆãƒªã‚¢",
        "name:ka": "áƒ•áƒ˜áƒ¢áƒáƒ áƒ˜áƒ",
        "name:kk": "Ğ’Ğ¸Ñ‚Ğ¾Ñ€Ğ¸Ñ",
        "name:ko": "ë¹„í† ë¦¬ì•„",
        "name:la": "Nova Victoria",
        "name:lt": "Vitorija-Gasteisas",
        "name:lv": "Vitorija",
        "name:mk": "Ğ’Ğ¸Ñ‚Ğ¾Ñ€Ğ¸Ñ˜Ğ°",
        "name:mn": "Ğ’Ğ¸Ñ‚Ğ¾Ñ€Ğ¸Ğ°-Ğ“Ğ°ÑÑ‚ĞµĞ¹Ñ",
        "name:mr": "à¤µà¥à¤¹à¤¿à¤¤à¥‹à¤°à¤¿à¤¯à¤¾",
        "name:os": "Ğ’Ğ¸Ñ‚Ğ¾Ñ€Ğ¸",
        "name:pnb": "ÙˆÙ¹ÙˆØ±ÛŒØ§",
        "name:ru": "Ğ’Ğ¸Ñ‚Ğ¾Ñ€Ğ¸Ñ",
        "name:sa": "à¤µà¤¿à¤Ÿà¥‹à¤°à¤¿à¤¯à¤¾-à¤—à¤¾à¤¸à¥à¤Ÿà¤¿à¤œà¤¼",
        "name:sr": "Ğ’Ğ¸Ñ‚Ğ¾Ñ€Ğ¸Ñ˜Ğ°",
        "name:sr-Latn": "Vitorija",
        "name:th": "à¸šà¸´à¹‚à¸•à¹€à¸£à¸µà¸¢",
        "name:uk": "Ğ’Ñ–Ñ‚Ğ¾Ñ€Ñ–Ñ",
        "name:ur": "Ø¨ÛŒØªÙˆØ±ÛŒØ§-Ú¯Ø§Ø³ØªÛŒØ¦Ø³",
        "name:wa": "Gasteysse",
        "name:yi": "×•×•×™×˜××¨×™×¢",
        "name:zh": "ç¶­å¤šåˆ©äº",
        "name:zh-Hans": "ç»´å¤šåˆ©äºš",
        "name:zh-Hant": "ç¶­å¤šåˆ©äº",
        "note": "Please, abstain from changing the \"place\" tag to \"place=city\".",
        "place": "city",
        "population": "248315",
        "population:date": "2022",
        "ref:ine": "01059006301",
        "source": "Instituto GeogrÃ¡fico Nacional",
        "source:date": "2011-06",
        "source:ele": "MDT5",
        "source:name": "NomenclÃ¡tor GeogrÃ¡fico de Municipios y Entidades de PoblaciÃ³n",
        "source:name:br": "same as name",
        "wikidata": "Q24008392",
        "wikipedia": "es:Vitoria",
        "wikipedia:es": "Vitoria",
        "wikipedia:eu": "Gasteiz"
      }
    },
    {
      "type": "node",
      "id": 28849760,
      "lat": 42.8181992,
      "lon": -1.6440089,
      "tags": {
        "alt_name:el": "Î™ÏÎ¿ÏÎ½Î¹Î±",
        "alt_name:eu": "IruÃ±a",
        "capital": "4",
        "ele": "450",
        "name": "Pamplona / IruÃ±a",
        "name:ar": "Ø¨Ù†Ø¨Ù„ÙˆÙ†Ø©",
        "name:ast": "Pamplona",
        "name:be": "ĞŸĞ°Ğ¼Ğ¿Ğ»Ğ¾Ğ½Ğ°",
        "name:br": "IruÃ±a",
        "name:ca": "Pamplona",
        "name:da": "Pamplona",
        "name:el": "Î Î±Î¼Ï€Î»ÏŒÎ½Î±",
        "name:en": "Pamplona",
        "name:es": "Pamplona",
        "name:et": "Pamplona",
        "name:eu": "IruÃ±ea",
        "name:fr": "Pampelune",
        "name:he": "×¤××¤×œ×•× ×”",
        "name:hy": "ÕŠÕ¡Õ´ÕºÕ¬Õ¸Õ¶Õ¡",
        "name:ja": "ãƒ‘ãƒ³ãƒ—ãƒ­ãƒ¼ãƒŠ",
        "name:ka": "áƒáƒáƒ›áƒáƒšáƒáƒœáƒ",
        "name:ko": "íŒœí”Œë¡œëƒ",
        "name:la": "Pompelo",
        "name:oc": "Pampalona",
        "name:pl": "Pampeluna",
        "name:ru": "ĞŸĞ°Ğ¼Ğ¿Ğ»Ğ¾Ğ½Ğ°",
        "name:sr": "ĞŸĞ°Ğ¼Ğ¿Ğ»Ğ¾Ğ½Ğ°",
        "name:th": "à¸›à¸±à¸¡à¹‚à¸›à¸¥à¸™à¸²",
        "name:zh": "æ½˜æ™®æ´›ç´",
        "name:zh-Hans": "æ½˜æ™®æ´›çº³",
        "name:zh-Hant": "æ½˜æ™®æ´›ç´",
        "note": "El nombre oficial en euskera es \"IruÃ±a\", pero el recomendado por Euskaltzaindia \"IruÃ±ea\"",
        "official_name": "Pamplona/IruÃ±a",
        "place": "city",
        "population": "203418",
        "population:date": "2022",
        "ref:ine": "31201000201",
        "source": "Instituto GeogrÃ¡fico Nacional",
        "source:date": "2011-06",
        "source:ele": "MDT5",
        "source:name": "NomenclÃ¡tor GeogrÃ¡fico de Municipios y Entidades de PoblaciÃ³n",
        "source:name:br": "same as name",
        "source:name:oc": "ieo-bdtopoc",
        "wikidata": "Q10282",
        "wikipedia": "es:Pamplona"
      }
    },
    {
      "type": "node",
      "id": 29015863,
      "lat": 28.467178,
      "lon": -16.2507843,
      "tags": {
        "alt_name:el": "Î£Î¬Î½Ï„Î± ÎšÏÎ¿Ï…Î¶ Î½Ï„Îµ Î¤ÎµÎ½ÎµÏÎ¯Ï†Îµ",
        "capital": "4",
        "name": "Santa Cruz de Tenerife",
        "name:ar": "Ø³Ø§Ù†ØªØ§ ÙƒØ±ÙˆØ« Ø¯ÙŠ ØªÙŠÙ†ÙŠØ±ÙŠÙÙ‡",
        "name:el": "Î£Î¬Î½Ï„Î± ÎšÏÎ¿Ï…Î¸ Î´Îµ Î¤ÎµÎ½ÎµÏÎ¯Ï†Îµ",
        "name:es": "Santa Cruz de Tenerife",
        "name:fr": "Santa Cruz de TÃ©nÃ©rife",
        "name:ja": "ã‚µãƒ³ã‚¿ãƒ»ã‚¯ãƒ«ã‚¹ãƒ»ãƒ‡ãƒ»ãƒ†ãƒãƒªãƒ•ã‚§",
        "name:ko": "ì‚°íƒ€í¬ë£¨ìŠ¤ë°í…Œë„¤ë¦¬í˜",
        "name:lt": "TenerifÄ—s Santa Krusas",
        "name:ru": "Ğ¡Ğ°Ğ½Ñ‚Ğ°-ĞšÑ€ÑƒÑ-Ğ´Ğµ-Ğ¢ĞµĞ½ĞµÑ€Ğ¸Ñ„Ğµ",
        "name:zh": "åœ£å…‹é²æ–¯-å¾·ç‰¹å†…é‡Œè´¹",
        "place": "city",
        "population": "147140",
        "population:date": "2022",
        "ref:ine": "38038002501",
        "short_name": "Santa Cruz",
        "short_name:el": "Î£Î¬Î½Ï„Î± ÎšÏÎ¿Ï…Î¶",
        "source": "Instituto GeogrÃ¡fico Nacional",
        "source:date": "2011-06",
        "source:name": "NomenclÃ¡tor GeogrÃ¡fico de Municipios y Entidades de PoblaciÃ³n",
        "wikidata": "Q14328",
        "wikimedia_commons": "Category:Santa Cruz de Tenerife",
        "wikipedia": "es:Santa Cruz de Tenerife"
      }
    },
    {
      "type": "node",
      "id": 29215168,
      "lat": 40.9481192,
      "lon": -4.1172101,
      "tags": {
        "alt_name:ar": "Ø´Ù‚ÙˆØ¨ÙŠ;Ø´Ù‚ÙˆØ¨ÙŠÙ‡;Ø£Ø´Ù‚ÙˆØ¨ÙŠÙ‡;Ø³ÙŠØ¬ÙˆÙÙŠØ§",
        "capital": "6",
        "check_date": "2023-04-15",
        "description": "Segovia es un municipio y ciudad espaÃ±ola, capital de la provincia del mismo nombre, en la comunidad autÃ³noma de Castilla y LeÃ³n EstÃ¡ en la confluencia de los rÃ­os Eresma primero con el CiguiÃ±uela y despuÃ©s con el Clamores, pie de la sierra de Guadarrama",
        "ele": "1002",
        "heritage": "1",
        "heritage:operator": "whc",
        "idee:name": "Segovia",
        "image": "https://upload.wikimedia.org/wikipedia/commons/3/3f/Acueducto_de_SegoviaArturoFranciscoBarbero.jpg",
        "name": "Segovia",
        "name:am": "áˆ´áŒá‰¢áŠ ",
        "name:ar": "Ø´Ù‚ÙˆØ¨ÙŠØ©",
        "name:be": "Ğ¡ĞµĞ³Ğ¾Ğ²Ñ–Ñ",
        "name:ca": "SegÃ²via",
        "name:el": "Î£ÎµÎ³ÏŒÎ²Î¹Î±",
        "name:es": "Segovia",
        "name:eu-x-gaceria": "Segovia",
        "name:fa": "Ø³Ú¯ÙˆØ¨ÛŒØ§",
        "name:fr": "SÃ©govie",
        "name:he": "×¡×’×•×‘×™×”",
        "name:hy": "ÕÕ¥Õ£Õ¸Õ¾Õ«Õ¡",
        "name:ja": "ã‚»ã‚´ãƒ“ã‚¢",
        "name:ka": "áƒ¡áƒ”áƒ’áƒáƒ•áƒ˜áƒ",
        "name:ko": "ì„¸ê³ ë¹„ì•„",
        "name:lt": "Segovija",
        "name:ru": "Ğ¡ĞµĞ³Ğ¾Ğ²Ğ¸Ñ",
        "name:sr": "Ğ¡ĞµĞ³Ğ¾Ğ²Ğ¸Ñ˜Ğ°",
        "name:uk": "Ğ¡ĞµĞ³Ğ¾Ğ²Ñ–Ñ",
        "name:ur": "Ø´Ù‚ÙˆØ¨ÛŒÛ",
        "name:zh": "å¡å“¥ç¶­äº",
        "old_name": "Segobia",
        "old_name1": "Secovia",
        "place": "city",
        "population": "48346",
        "population:date": "2022",
        "ref:ine": "40194000601",
        "source": "Instituto GeogrÃ¡fico Nacional;Instituto Nacional de EstadÃ­stica;Wikipedia",
        "source:date": "2011-06",
        "source:ele": "MDT5",
        "source:name": "NomenclÃ¡tor GeogrÃ¡fico de Municipios y Entidades de PoblaciÃ³n",
        "start_date": "Fundada como Segovia por los celtÃ­beros",
        "website": "https://www.segovia.es/",
        "wikidata": "Q15684",
        "wikimedia_commons": "File:Acueducto_de_SegoviaArturoFranciscoBarbero.jpg",
        "wikipedia": "es:Segovia"
      }
    },
    {
      "type": "node",
      "id": 29272534,
      "lat": 41.6521328,
      "lon": -4.728562,
      "tags": {
        "capital": "4",
        "ele": "690",
        "name": "Valladolid",
        "name:am": "á‰£á‹«á‹¶áˆŠá‹µ",
        "name:ar": "Ø¨Ù„Ø¯ Ø§Ù„ÙˆÙ„ÙŠØ¯",
        "name:be": "Ğ’Ğ°Ğ»ÑŒÑĞ´Ğ°Ğ»Ñ–Ğ´",
        "name:ca": "Valladolid",
        "name:el": "Î’Î±Î³Î¹Î±Î´Î¿Î»Î¯Î´",
        "name:es": "Valladolid",
        "name:fa": "ÙˆØ§Ù„Ø§Ø¯Ù„ÛŒØ¯",
        "name:he": "×•××™××“×•×œ×™×“",
        "name:hy": "ÕÕ¡Õ¬ÕµÕ¡Õ¤Õ¸Õ¬Õ«Õ¤",
        "name:ja": "ãƒãƒªãƒ£ãƒ‰ãƒªãƒƒãƒ‰",
        "name:ka": "áƒ•áƒáƒšáƒ˜áƒáƒ“áƒáƒšáƒ˜áƒ“áƒ˜",
        "name:ko": "ë°”ì•¼ëŒë¦¬ë“œ",
        "name:ru": "Ğ’Ğ°Ğ»ÑŒÑĞ´Ğ¾Ğ»Ğ¸Ğ´",
        "name:sr": "Ğ’Ğ°Ñ™Ğ°Ğ´Ğ¾Ğ»Ğ¸Ğ´",
        "name:uk": "Ğ’Ğ°Ğ»ÑŒÑĞ´Ğ¾Ğ»Ñ–Ğ´",
        "name:zh-Hans": "å·´åˆ©äºšå¤šåˆ©å¾·",
        "name:zh-Hant": "è¯æ‹‰æœåˆ—",
        "place": "city",
        "population": "290642",
        "population:date": "2022",
        "ref:ine": "47186000501",
        "source": "Instituto GeogrÃ¡fico Nacional",
        "source:date": "2011-06",
        "source:ele": "MDT5",
        "source:name": "NomenclÃ¡tor GeogrÃ¡fico de Municipios y Entidades de PoblaciÃ³n",
        "wikidata": "Q31925679",
        "wikipedia": "es:Valladolid"
      }
    },
    {
      "type": "node",
      "id": 29333339,
      "lat": 28.1288694,
      "lon": -15.4349015,
      "tags": {
        "capital": "4",
        "ele": "8",
        "name": "Las Palmas de Gran Canaria",
        "name:ar": "Ù„Ø§Ø³ Ø¨Ø§Ù„Ù…Ø§Ø³ Ø¯ÙŠ ØºØ±Ø§Ù† ÙƒÙ†Ø§Ø±ÙŠØ§",
        "name:be": "Ğ›Ğ°Ñ-ĞŸĞ°Ğ»ÑŒĞ¼Ğ°Ñ",
        "name:fr": "Las Palmas de Grande Canarie",
        "name:is": "Las Palmas de Gran Canaria",
        "name:ko": "ë¼ìŠ¤íŒ”ë§ˆìŠ¤",
        "name:lt": "Gran Kanarijos las Palmas",
        "name:ml": "à´²à´¾à´¸àµ à´ªà´¾àµ½à´®à´¾à´¸àµ à´¡à´¿ à´—àµà´°à´¾àµ» à´•à´¾à´¨à´±à´¿à´¯",
        "name:pl": "Las Palmas de Gran Canaria",
        "name:ru": "Ğ›Ğ°Ñ-ĞŸĞ°Ğ»ÑŒĞ¼Ğ°Ñ-Ğ´Ğµ-Ğ“Ñ€Ğ°Ğ½-ĞšĞ°Ğ½Ğ°Ñ€Ğ¸Ñ",
        "name:zh": "å¤§åŠ é‚£åˆ©å²›æ‹‰æ–¯å¸•å°”é©¬æ–¯",
        "place": "city",
        "population": "298527",
        "population:date": "2022",
        "ref:ine": "35016002401",
        "source": "landsat;Instituto GeogrÃ¡fico Nacional",
        "source:date": "2011-06",
        "source:ele": "MDT5",
        "source:name": "NomenclÃ¡tor GeogrÃ¡fico de Municipios y Entidades de PoblaciÃ³n",
        "website": "https://www.laspalmasgc.es/",
        "wikidata": "Q11974",
        "wikipedia": "en:Las Palmas"
      }
    },
    {
      "type": "node",
      "id": 30044584,
      "lat": 38.9950921,
      "lon": -1.8559154,
      "tags": {
        "capital": "6",
        "ele": "681",
        "name": "Albacete",
        "name:ar": "Ø§Ù„Ø¨Ø³ÙŠØ·",
        "name:be": "ĞĞ»ÑŒĞ±Ğ°ÑĞµÑ‚Ñ",
        "name:el": "Î‘Î»Î¼Ï€Î±Î¸Î­Ï„Îµ",
        "name:es": "Albacete",
        "name:hu": "Albacete",
        "name:ja": "ã‚¢ãƒ«ãƒã‚»ãƒ†",
        "name:ru": "ĞĞ»ÑŒĞ±Ğ°ÑĞµÑ‚Ğµ",
        "name:sr": "ĞĞ»Ğ±Ğ°ÑĞµÑ‚Ğµ",
        "note": "La etiqueta de Albacete estaba duplicada; por tanto, he unificado la informaciÃ³n de ambas. There were two different labels about Albacete. I have unified data of both labels into one.",
        "place": "city",
        "population": "165214",
        "population:date": "2022",
        "ref:ine": "02003000201",
        "source": "Instituto GeogrÃ¡fico Nacional",
        "source:date": "2011-06",
        "source:ele": "MDT5",
        "source:name": "NomenclÃ¡tor GeogrÃ¡fico de Municipios y Entidades de PoblaciÃ³n",
        "wikidata": "Q15095",
        "wikipedia": "es:Albacete"
      }
    },
    {
      "type": "node",
      "id": 30843230,
      "lat": 42.3436415,
      "lon": -7.8674242,
      "tags": {
        "capital": "6",
        "ele": "138",
        "idee:name": "Ourense",
        "name": "Ourense",
        "name:ar": "Ø£ÙˆØ±Ù†Ø³ÙŠ",
        "name:ast": "Ourense",
        "name:be": "ĞÑ€ÑĞ½ÑÑ",
        "name:ca": "Ourense",
        "name:de": "Ourense",
        "name:el": "ÎŸÎ¿Ï…ÏÎ­Î½ÏƒÎµ",
        "name:en": "Ourense",
        "name:es": "Orense",
        "name:fr": "Ourense",
        "name:gl": "Ourense",
        "name:ja": "ã‚ªã‚¦ãƒ¬ãƒ³ã‚»",
        "name:mwl": "Ourense",
        "name:pt": "Ourense",
        "name:ru": "ĞÑ€ĞµĞ½ÑĞµ",
        "name:sr": "ĞÑ€ĞµĞ½ÑĞµ",
        "old_name:el": "ÎŸÏ…ÏÎ­Î½ÏƒÎµ",
        "place": "city",
        "population": "97051",
        "population:date": "2022",
        "ref:ine": "32054000101",
        "source": "Instituto GeogrÃ¡fico Nacional",
        "source:date": "2011-06",
        "source:ele": "MDT5",
        "source:name": "NomenclÃ¡tor GeogrÃ¡fico de Municipios y Entidades de PoblaciÃ³n",
        "wikidata": "Q24012306",
        "wikipedia": "gl:Ourense"
      }
    },
    {
      "type": "node",
      "id": 30894545,
      "lat": 41.9793006,
      "lon": 2.8199439,
      "tags": {
        "alt_name:be": "Ğ¥ĞµÑ€Ğ¾Ğ½Ğ°",
        "alt_name:el": "Î§ÎµÏÏŒÎ½Î±",
        "alt_name:lt": "Cherona",
        "capital": "6",
        "ele": "70",
        "ine:municipio": "17079",
        "ine:provincia": "17",
        "name": "Girona",
        "name:an": "Chirona",
        "name:ar": "Ø¬Ø±Ù†Ø¯Ø©",
        "name:ast": "Xirona",
        "name:be": "Ğ–Ñ‹Ñ€Ğ¾Ğ½Ğ°",
        "name:ca": "Girona",
        "name:el": "Î–Î¹ÏÏŒÎ½Î±",
        "name:es": "Gerona",
        "name:eu": "Girona",
        "name:fa": "Ø®Ø±Ù†Ø§",
        "name:fr": "GÃ©rone",
        "name:gl": "Xirona",
        "name:he": "×–'×™×¨×•× ×”",
        "name:ja": "ã‚¸ãƒ­ãƒ¼ãƒŠ",
        "name:ko": "ì§€ë¡œë‚˜",
        "name:lt": "Å½irona",
        "name:nl": "Gerona",
        "name:oc": "Girona",
        "name:pt": "Gerunda",
        "name:ru": "Ğ–Ğ¸Ñ€Ğ¾Ğ½Ğ°",
        "name:sr": "Ğ‚Ğ¸Ñ€Ğ¾Ğ½Ğ°",
        "name:uk": "Ğ–Ñ–Ñ€Ğ¾Ğ½Ğ°",
        "name:zh": "èµ«ç½—çº³",
        "name:zh-Hans": "èµ«ç½—çº³",
        "name:zh-Hant": "å‰éš†ç´",
        "official_name": "Girona",
        "place": "city",
        "population": "98697",
        "population:date": "2022",
        "ref:ine": "17079000501",
        "source": "Instituto GeogrÃ¡fico Nacional",
        "source:date": "2011-06",
        "source:name": "NomenclÃ¡tor GeogrÃ¡fico de Municipios y Entidades de PoblaciÃ³n",
        "source:name:oc": "ieo-bdtopoc",
        "website": "https://www.girona.cat/",
        "wikidata": "Q7038",
        "wikipedia": "ca:Girona"
      }
    },
    {
      "type": "node",
      "id": 31335145,
      "lat": 37.9775416,
      "lon": -0.6828446,
      "tags": {
        "capital": "8",
        "ele": "7",
        "name": "Torrevieja",
        "name:ca": "Torrevella",
        "name:es": "Torrevieja",
        "name:ru": "Ğ¢Ğ¾Ñ€Ñ€ĞµĞ²ÑŒĞµÑ…Ğ°",
        "name:sr": "Ğ¢Ğ¾Ñ€ĞµĞ²Ğ¸Ñ˜ĞµÑ…Ğ°",
        "name:uk": "Ğ¢Ğ¾Ñ€Ñ€ĞµĞ²'Ñ”Ñ…Ğ°",
        "place": "city",
        "population": "60869",
        "population:date": "2022",
        "ref:ine": "03133000206",
        "source": "Instituto GeogrÃ¡fico Nacional",
        "source:date": "2011-06",
        "source:ele": "MDT5",
        "source:name": "NomenclÃ¡tor GeogrÃ¡fico de Municipios y Entidades de PoblaciÃ³n",
        "wikidata": "Q221749",
        "wikipedia": "es:Torrevieja"
      }
    },
    {
      "type": "node",
      "id": 31432063,
      "lat": 42.5989995,
      "lon": -5.5682413,
      "tags": {
        "capital": "6",
        "ele": "837",
        "name": "LeÃ³n",
        "name:am": "áˆŒáŠ¦áŠ•",
        "name:ar": "Ù„ÙŠÙˆÙ†",
        "name:ast": "LliÃ³n",
        "name:be": "Ğ›ĞµĞ¾Ğ½",
        "name:ca": "LleÃ³",
        "name:el": "Î›ÎµÏŒÎ½",
        "name:es": "LeÃ³n",
        "name:eu": "Leon",
        "name:fa": "Ù„Ø¦ÙˆÙ†",
        "name:he": "×œ××•×Ÿ",
        "name:hy": "Ô¼Õ¥Õ¸Õ¶",
        "name:ja": "ãƒ¬ã‚ªãƒ³",
        "name:ka": "áƒšáƒ”áƒáƒœáƒ˜",
        "name:ko": "ë ˆì˜¨",
        "name:ru": "Ğ›ĞµĞ¾Ğ½",
        "name:sr": "Ğ›ĞµĞ¾Ğ½",
        "name:uk": "Ğ›ĞµĞ¾Ğ½",
        "place": "city",
        "population": "114889",
        "population:date": "2022",
        "ref:ine": "24089000201",
        "source": "Instituto GeogrÃ¡fico Nacional",
        "source:date": "2011-06",
        "source:ele": "MDT5",
        "source:name": "NomenclÃ¡tor GeogrÃ¡fico de Municipios y Entidades de PoblaciÃ³n",
        "wikidata": "Q23995893"
      }
    },
    {
      "type": "node",
      "id": 34105607,
      "lat": 39.4697065,
      "lon": -0.3763353,
      "tags": {
        "alt_name:el": "Î’Î±Î»Î­Î½ÏƒÎ¹Î±",
        "alt_name:tr": "Valensiya",
        "capital": "4",
        "ele": "16",
        "int_name": "Valencia",
        "name": "ValÃ¨ncia",
        "name:am": "á‰«áˆˆáŠ•áˆ²á‹«",
        "name:ar": "Ø¨Ù„Ù†Ø³ÙŠØ©",
        "name:az": "Valensiya",
        "name:azb": "ÙˆØ§Ù„Ù†Ø³ÛŒØ§",
        "name:be": "Ğ’Ğ°Ğ»ĞµĞ½ÑÑ–Ñ",
        "name:bn": "à¦­à§à¦¯à¦¾à¦²à§‡à¦¨à§à¦¸à¦¿à¦¯à¦¼à¦¾",
        "name:ca": "ValÃ¨ncia",
        "name:cs": "Valencie",
        "name:de": "Valencia",
        "name:el": "Î’Î±Î»Î­Î½Î¸Î¹Î±",
        "name:en": "Valencia",
        "name:es": "Valencia",
        "name:eu": "Valentzia",
        "name:fr": "Valence",
        "name:it": "Valencia",
        "name:ka": "áƒ•áƒáƒšáƒ”áƒœáƒ¡áƒ˜áƒ",
        "name:la": "Valentia",
        "name:lt": "Valensija",
        "name:lv": "Valensija",
        "name:nl": "Valencia",
        "name:oc": "ValÃ©ncia",
        "name:pl": "Walencja",
        "name:ru": "Ğ’Ğ°Ğ»ĞµĞ½ÑĞ¸Ñ",
        "name:sr": "Ğ’Ğ°Ğ»ĞµĞ½ÑĞ¸Ñ˜Ğ°",
        "name:tr": "Belensiye",
        "name:tt": "Ğ’Ğ°Ğ»Ğ¸Ğ½ÑÓ™",
        "name:uk": "Ğ’Ğ°Ğ»ĞµĞ½ÑÑ–Ñ",
        "name:zh": "ç“¦å€«è¥¿äº",
        "name:zh-Hans": "ç“¦ä¼¦è¥¿äºš",
        "name:zh-Hant": "ç“¦å€«è¥¿äº",
        "official_name": "ValÃ¨ncia",
        "place": "city",
        "population": "754558",
        "population:date": "2022",
        "ref:ine": "46250001401",
        "source": "Instituto GeogrÃ¡fico Nacional",
        "source:date": "2011-06",
        "source:ele": "MDT5",
        "source:name": "NomenclÃ¡tor GeogrÃ¡fico de Municipios y Entidades de PoblaciÃ³n",
        "source:name:oc": "Lo CongrÃ¨s",
        "wikidata": "Q8818",
        "wikipedia": "ca:ValÃ¨ncia"
      }
    },
    {
      "type": "node",
      "id": 52228684,
      "lat": 41.4493539,
      "lon": 2.248254,
      "tags": {
        "capital": "8",
        "ele": "23",
        "name": "Badalona",
        "name:ar": "Ø¨Ø§Ø¯Ø§Ù„ÙˆÙ†Ø§",
        "name:be": "Ğ‘Ğ°Ğ´Ğ°Ğ»Ğ¾Ğ½Ğ°",
        "name:bg": "Ğ‘Ğ°Ğ´Ğ°Ğ»Ğ¾Ğ½Ğ°",
        "name:ca": "Badalona",
        "name:el": "ÎœÏ€Î±Î´Î±Î»ÏŒÎ½Î±",
        "name:fa": "Ø¨Ø§Ø¯Ø§Ù„ÙˆÙ†Ø§",
        "name:hy": "Ô²Õ¡Õ¤Õ¡Õ¬Õ¸Õ¶Õ¡",
        "name:ja": "ãƒãƒ€ãƒ­ãƒŠ",
        "name:ka": "áƒ‘áƒáƒ“áƒáƒšáƒáƒœáƒ",
        "name:kk": "Ğ‘Ğ°Ğ´Ğ°Ğ»Ğ¾Ğ½Ğ°",
        "name:ko": "ë°”ë‹¬ë¡œë‚˜",
        "name:la": "Baetulo",
        "name:ru": "Ğ‘Ğ°Ğ´Ğ°Ğ»Ğ¾Ğ½Ğ°",
        "name:sa": "à¤¬à¤¾à¤¡à¤¾à¤²à¥‹à¤¨à¤¾",
        "name:sr": "Ğ‘Ğ°Ğ´Ğ°Ğ»Ğ¾Ğ½Ğ°",
        "name:th": "à¸šà¸²à¸”à¸²à¹‚à¸¥à¸™à¸²",
        "name:uk": "Ğ‘Ğ°Ğ´Ğ°Ğ»Ğ¾Ğ½Ğ°",
        "name:zh": "å·´è¾¾æ´›çº³",
        "place": "city",
        "population": "221814",
        "population:date": "2022",
        "ref:ine": "08015000101",
        "source": "NomenclÃ¡tor GeogrÃ¡fico de Municipios y Entidades de PoblaciÃ³n",
        "source:date": "2011-06",
        "source:ele": "MDT5",
        "wikidata": "Q15468",
        "wikipedia": "ca:Badalona"
      }
    },
    {
      "type": "node",
      "id": 64835706,
      "lat": 37.7728858,
      "lon": -3.7883289,
      "tags": {
        "capital": "6",
        "ele": "570",
        "heritage": "3",
        "heritage:operator": "Junta de AndalucÃ­a",
        "name": "JaÃ©n",
        "name:ar": "Ø¬ÙŠØ§Ù†",
        "name:be": "Ğ¥Ğ°ÑĞ½",
        "name:el": "Î§Î±Î­Î½",
        "name:es": "JaÃ©n",
        "name:lt": "Chaenas",
        "name:ru": "Ğ¥Ğ°ÑĞ½",
        "name:sr": "Ğ¥Ğ°ĞµĞ½",
        "place": "city",
        "population": "107115",
        "population:date": "2022",
        "postal_code": "23001-23009",
        "ref:ine": "23050000901",
        "source": "Instituto GeogrÃ¡fico Nacional",
        "source:date": "2011-06",
        "source:ele": "MDT5",
        "source:name": "NomenclÃ¡tor GeogrÃ¡fico de Municipios y Entidades de PoblaciÃ³n",
        "wikidata": "Q15681",
        "wikipedia": "es:JaÃ©n"
      }
    },
    {
      "type": "node",
      "id": 65523130,
      "lat": 41.5398348,
      "lon": 2.4448926,
      "tags": {
        "capital": "8",
        "ele": "26",
        "name": "MatarÃ³",
        "name:ar": "Ù…Ø§ØªØ§Ø±Ùˆ",
        "name:ca": "MatarÃ³",
        "name:el": "ÎœÎ±Ï„Î±ÏÏŒ",
        "name:es": "MatarÃ³",
        "name:lt": "Mataro",
        "name:ru": "ĞœĞ°Ñ‚Ğ°Ñ€Ğ¾",
        "name:uk": "ĞœĞ°Ñ‚Ğ°Ñ€Ğ¾",
        "place": "city",
        "population": "128956",
        "population:date": "2022",
        "ref:ine": "08121000101",
        "source": "Institut GeogrÃ fic de Catalunya",
        "source:date": "2011-06",
        "source:ele": "MDT5",
        "source:name": "NomenclÃ¡tor GeogrÃ¡fico de Municipios y Entidades de PoblaciÃ³n",
        "wikidata": "Q11492",
        "wikipedia": "ca:MatarÃ³"
      }
    },
    {
      "type": "node",
      "id": 84550790,
      "lat": 42.2376602,
      "lon": -8.7247205,
      "tags": {
        "capital": "8",
        "ele": "19",
        "name": "Vigo",
        "name:ar": "ÙÙŠØºÙˆ",
        "name:ca": "Vigo",
        "name:ckb": "Ú¤ÛŒÚ¯Û†",
        "name:el": "Î’Î¯Î³Î¿",
        "name:ru": "Ğ’Ğ¸Ğ³Ğ¾",
        "name:sr": "Ğ’Ğ¸Ğ³Ğ¾",
        "place": "city",
        "population": "198293",
        "population:date": "2022",
        "ref:ine": "36057000201",
        "source": "Instituto GeogrÃ¡fico Nacional",
        "source:date": "2011-06",
        "source:ele": "MDT5",
        "source:name": "NomenclÃ¡tor GeogrÃ¡fico de Municipios y Entidades de PoblaciÃ³n",
        "wikidata": "Q8745",
        "wikipedia": "gl:Vigo"
      }
    },
    {
      "type": "node",
      "id": 91254710,
      "lat": 43.4846862,
      "lon": -8.233162,
      "tags": {
        "alt_name:el": "Î¦ÎµÏÏŒÎ»",
        "capital": "7",
        "ele": "9",
        "name": "Ferrol",
        "name:ar": "ÙÙŠØ±ÙˆÙ„",
        "name:el": "Î¦ÎµÏÏÏŒÎ»",
        "name:es": "Ferrol",
        "name:gl": "Ferrol",
        "place": "city",
        "population": "57110",
        "population:date": "2022",
        "ref:ine": "15036000101",
        "source": "Instituto GeogrÃ¡fico Nacional",
        "source:date": "2011-06",
        "source:ele": "MDT5",
        "source:name": "NomenclÃ¡tor GeogrÃ¡fico de Municipios y Entidades de PoblaciÃ³n",
        "wikidata": "Q485329",
        "wikipedia": "gl:Ferrol"
      }
    },
    {
      "type": "node",
      "id": 124083658,
      "lat": 41.6147605,
      "lon": 0.6267842,
      "tags": {
        "capital": "6",
        "ele": "167",
        "name": "Lleida",
        "name:ar": "Ù„Ø§Ø±Ø¯Ø©",
        "name:ca": "Lleida",
        "name:el": "Î›Î¹Î­Î¹Î´Î±",
        "name:es": "LÃ©rida",
        "name:fr": "LÃ©rida",
        "name:lt": "Lerida",
        "name:oc": "LhÃ¨ida",
        "name:ru": "Ğ›ÑŒĞµĞ¹Ğ´Ğ°",
        "name:sr": "Ğ‰ĞµĞ¸Ğ´Ğ°",
        "place": "city",
        "population": "134339",
        "population:date": "2022",
        "ref:ine": "25120000601",
        "source": "Instituto GeogrÃ¡fico Nacional",
        "source:date": "2011-06",
        "source:ele": "MDT5",
        "source:name": "NomenclÃ¡tor GeogrÃ¡fico de Municipios y Entidades de PoblaciÃ³n",
        "wikidata": "Q15090",
        "wikipedia": "ca:Lleida"
      }
    },
    {
      "type": "node",
      "id": 152364165,
      "lat": 41.3828939,
      "lon": 2.1774322,
      "tags": {
        "alt_name:gl": "Barna",
        "capital": "4",
        "ele": "13",
        "name": "Barcelona",
        "name:ar": "Ø¨Ø±Ø´Ù„ÙˆÙ†Ø©",
        "name:be": "Ğ‘Ğ°Ñ€ÑĞµĞ»Ğ¾Ğ½Ğ°",
        "name:br": "Barcelona",
        "name:ca": "Barcelona",
        "name:ckb": "Ø¨Ø§Ø±Ø³ÛÙ„Û†Ù†Ø§",
        "name:de": "Barcelona",
        "name:el": "Î’Î±ÏÎºÎµÎ»ÏÎ½Î·",
        "name:en": "Barcelona",
        "name:es": "Barcelona",
        "name:eu": "Bartzelona",
        "name:fr": "Barcelone",
        "name:gd": "BarsalÃ²na",
        "name:gl": "Barcelona",
        "name:hi": "à¤¬à¤¾à¤°à¥à¤¸à¥†à¤²à¥‹à¤¨à¤¾",
        "name:it": "Barcellona",
        "name:ja": "ãƒãƒ«ã‚»ãƒ­ãƒŠ",
        "name:kn": "à²¬à²¾à²°à³à²¸à³†à²²à³‹à²¨à²¾",
        "name:lt": "Barselona",
        "name:mk": "Ğ‘Ğ°Ñ€ÑĞµĞ»Ğ¾Ğ½Ğ°",
        "name:oc": "Barcelona",
        "name:pl": "Barcelona",
        "name:pt": "Barcelona",
        "name:ru": "Ğ‘Ğ°Ñ€ÑĞµĞ»Ğ¾Ğ½Ğ°",
        "name:sr": "Ğ‘Ğ°Ñ€ÑĞµĞ»Ğ¾Ğ½Ğ°",
        "name:szl": "BarcelÅna",
        "name:tr": "Barselona",
        "name:uk": "Ğ‘Ğ°Ñ€ÑĞµĞ»Ğ¾Ğ½Ğ°",
        "name:zh": "å·´å¡ç½—é‚£",
        "name:zh-Hans": "å·´å¡ç½—é‚£",
        "name:zh-Hant": "å·´å¡éš†ç´",
        "place": "city",
        "population": "1636193",
        "population:date": "2022",
        "ref:ine": "08019000101",
        "source": "Instituto GeogrÃ¡fico Nacional",
        "source:date": "2011-06",
        "source:ele": "MDT5",
        "source:name": "NomenclÃ¡tor GeogrÃ¡fico de Municipios y Entidades de PoblaciÃ³n",
        "source:name:br": "same as name",
        "source:name:oc": "Lo CongrÃ¨s",
        "wikidata": "Q1492",
        "wikipedia": "ca:Barcelona"
      }
    },
    {
      "type": "node",
      "id": 152377920,
      "lat": 41.1172364,
      "lon": 1.2546057,
      "tags": {
        "alt_name:el": "Î¤Î±ÏÎ±Î³ÏŒÎ½Î±",
        "capital": "6",
        "ele": "69",
        "idescat:comarca": "36",
        "idescat:Ã mbit": "03",
        "ine:ccaa": "09",
        "ine:provincia": "43",
        "name": "Tarragona",
        "name:ar": "Ø·Ø±Ø§ØºÙˆÙ†Ø©",
        "name:be": "Ğ¢Ğ°Ñ€Ğ°Ğ³Ğ¾Ğ½Ğ°",
        "name:ca": "Tarragona",
        "name:el": "Î¤Î±ÏÏÎ±Î³ÏŒÎ½Î±",
        "name:es": "Tarragona",
        "name:fa": "ØªØ§Ø±Ø§Ú¯ÙˆÙ†Ø§",
        "name:fr": "Tarragone",
        "name:he": "×˜×¨×’×•× ×”",
        "name:ja": "ã‚¿ãƒ©ã‚´ãƒŠ",
        "name:ko": "íƒ€ë¼ê³ ë‚˜",
        "name:la": "Tarraco",
        "name:lt": "Taragona",
        "name:oc": "Tarragona",
        "name:ru": "Ğ¢Ğ°Ñ€Ñ€Ğ°Ğ³Ğ¾Ğ½Ğ°",
        "name:sr": "Ğ¢Ğ°Ñ€Ğ°Ğ³Ğ¾Ğ½Ğ°",
        "name:uk": "Ğ¢Ğ°Ñ€Ñ€Ğ°Ğ³Ğ¾Ğ½Ğ°",
        "name:zh": "å¡”æ‹‰æˆˆçº³",
        "name:zh-Hans": "å¡”æ‹‰æˆˆçº³",
        "name:zh-Hant": "å¡”æ‹‰æˆˆç´",
        "place": "city",
        "population": "65510",
        "population:date": "2022",
        "ref:ine": "43148001301",
        "source": "Instituto GeogrÃ¡fico Nacional",
        "source:date": "2011-06",
        "source:ele": "MDT5",
        "source:name": "NomenclÃ¡tor GeogrÃ¡fico de Municipios y Entidades de PoblaciÃ³n",
        "wikidata": "Q15088",
        "wikipedia": "ca:Tarragona"
      }
    },
    {
      "type": "node",
      "id": 152377926,
      "lat": 41.1555564,
      "lon": 1.1076133,
      "tags": {
        "capital": "7",
        "ele": "117",
        "name": "Reus",
        "name:ca": "Reus",
        "name:el": "Î¡Î­Î¿Ï…Ï‚",
        "name:en": "Reus",
        "name:es": "Reus",
        "name:lt": "Reusas",
        "name:ru": "Ğ ĞµÑƒÑ",
        "name:uk": "Ğ ĞµÑƒÑ",
        "place": "city",
        "population": "102339",
        "population:date": "2022",
        "ref:ine": "43123000601",
        "source": "Instituto GeogrÃ¡fico Nacional",
        "source:date": "2011-06",
        "source:ele": "MDT5",
        "source:name": "NomenclÃ¡tor GeogrÃ¡fico de Municipios y Entidades de PoblaciÃ³n",
        "wikidata": "Q487096",
        "wikipedia": "ca:Reus"
      }
    },
    {
      "type": "node",
      "id": 154892855,
      "lat": 38.9854201,
      "lon": -3.9285138,
      "tags": {
        "alt_name:ar": "Ø³ÙŠÙˆØ¯Ø§Ø¯ Ø±ÙŠØ§Ù„",
        "capital": "6",
        "ele": "625",
        "name": "Ciudad Real",
        "name:ar": "Ø«ÙŠÙˆØ¯Ø§Ø¯ Ø±ÙŠØ§Ù„",
        "name:be": "Ğ¡ÑŒÑĞ´Ğ°Ğ´-Ğ ÑĞ°Ğ»ÑŒ",
        "name:el": "Î˜Î¹Î¿Ï…Î´Î¬Î´ Î¡ÎµÎ¬Î»",
        "name:es": "Ciudad Real",
        "name:ja": "ã‚·ã‚¦ãƒ€ãƒ¼ãƒ»ãƒ¬ã‚¢ãƒ«",
        "name:la": "Civitas Regia",
        "name:ru": "Ğ¡ÑŒÑĞ´Ğ°Ğ´-Ğ ĞµĞ°Ğ»ÑŒ",
        "name:sr": "Ğ¡Ğ¸Ñ˜ÑƒĞ´Ğ°Ğ´ Ğ ĞµĞ°Ğ»",
        "place": "city",
        "population": "72828",
        "population:date": "2022",
        "ref:ine": "13034000201",
        "source": "Instituto GeogrÃ¡fico Nacional",
        "source:date": "2011-06",
        "source:ele": "MDT5",
        "source:name": "NomenclÃ¡tor GeogrÃ¡fico de Municipios y Entidades de PoblaciÃ³n",
        "wikidata": "Q15093"
      }
    },
    {
      "type": "node",
      "id": 166920565,
      "lat": 42.343926,
      "lon": -3.696977,
      "tags": {
        "alt_name:ar": "Ø¨ÙˆØ±ØºÙˆØ³",
        "capital": "6",
        "ele": "859",
        "heritage": "3",
        "heritage:operator": "Junta de Castilla y LeÃ³n",
        "name": "Burgos",
        "name:am": "á‰¡áˆ­áŒáˆµ",
        "name:ar": "Ø¨Ø±ØºØ´",
        "name:be": "Ğ‘ÑƒÑ€Ğ³Ğ°Ñ",
        "name:el": "ÎœÏ€Î¿ÏÏÎ³Î¿Ï‚",
        "name:es": "Burgos",
        "name:fa": "Ø¨ÙˆØ±Ú¯Ø³",
        "name:he": "×‘×•×¨×’×•×¡",
        "name:hy": "Ô²Õ¸Ö‚Ö€Õ£Õ¸Õ½",
        "name:ja": "ãƒ–ãƒ«ã‚´ã‚¹",
        "name:ka": "áƒ‘áƒ£áƒ áƒ’áƒáƒ¡áƒ˜",
        "name:ko": "ë¶€ë¥´ê³ ìŠ¤",
        "name:ru": "Ğ‘ÑƒÑ€Ğ³Ğ¾Ñ",
        "name:sr": "Ğ‘ÑƒÑ€Ğ³Ğ¾Ñ",
        "name:uk": "Ğ‘ÑƒÑ€Ğ³Ğ¾Ñ",
        "name:zh": "å¸ƒå°”æˆˆæ–¯",
        "place": "city",
        "population": "167802",
        "population:date": "2022",
        "ref:ine": "09059000101",
        "source": "Instituto GeogrÃ¡fico Nacional",
        "source:date": "2011-06",
        "source:ele": "MDT5",
        "source:name": "NomenclÃ¡tor GeogrÃ¡fico de Municipios y Entidades de PoblaciÃ³n",
        "wikidata": "Q43167665"
      }
    },
    {
      "type": "node",
      "id": 181290810,
      "lat": 43.0118437,
      "lon": -7.5565749,
      "tags": {
        "alt_name:ar": "Ù„ÙˆØ¬Ùˆ",
        "capital": "6",
        "name": "Lugo",
        "name:ar": "Ù„ÙˆØºÙˆ",
        "name:be": "Ğ›ÑƒĞ³Ğ°",
        "name:ca": "Lugo",
        "name:el": "Î›Î¿ÏÎ³Î¿",
        "name:gl": "Lugo",
        "name:lt": "Lugas",
        "name:ru": "Ğ›ÑƒĞ³Ğ¾",
        "name:zh-Hans": "å¢æˆˆ",
        "name:zh-Hant": "ç›§æˆˆ",
        "place": "city",
        "population": "89386",
        "population:date": "2022",
        "ref:ine": "27028000101",
        "source": "Instituto GeogrÃ¡fico Nacional",
        "source:date": "2011-06",
        "source:name": "NomenclÃ¡tor GeogrÃ¡fico de Municipios y Entidades de PoblaciÃ³n",
        "website": "https://lugo.es/",
        "wikidata": "Q11125",
        "wikipedia": "gl:Lugo"
      }
    },
    {
      "type": "node",
      "id": 203701688,
      "lat": 38.2653307,
      "lon": -0.6988391,
      "tags": {
        "alt_name:ar": "Ø¥Ù„Ø´;Ø¥Ù„ØªØ´Ù‡",
        "alt_name:el": "ÎˆÎ»Ï„Ï‚",
        "alt_name:gl": "Elxe",
        "capital": "8",
        "ele": "81",
        "name": "Elx / Elche",
        "name:ar": "Ø£Ù„Ø´",
        "name:ca": "Elx",
        "name:el": "ÎˆÎ»Ï„ÏƒÎµ",
        "name:es": "Elche",
        "name:et": "Elche",
        "name:eu": "Elx",
        "name:gl": "Elx",
        "name:ja": "ã‚¨ãƒ«ãƒã‚§",
        "name:oc": "Elsh",
        "name:ru": "Ğ­Ğ»ÑŒÑ‡Ğµ",
        "name:sr": "Ğ•Ğ»Ñ‡Ğµ",
        "name:uk": "Ğ•Ğ»ÑŒÑ‡Ğµ",
        "official_name:ca": "Elx",
        "official_name:es": "Elche",
        "old_name:el": "Î•Î»Î¯ÎºÎ·",
        "old_name:en": "Helike",
        "place": "city",
        "population": "191429",
        "population:date": "2022",
        "ref:ine": "03065001101",
        "wikidata": "Q10509",
        "wikipedia": "ca:Elx"
      }
    },
    {
      "type": "node",
      "id": 209144042,
      "lat": 40.4818396,
      "lon": -3.3644973,
      "tags": {
        "alt_name:ar": "Ø£Ù„ÙƒØ§Ù„Ø§ Ø¯ÙŠ Ø¥ÙŠÙ†Ø§Ø±ÙŠØ³",
        "capital": "8",
        "ele": "587",
        "heritage": "1",
        "heritage:operator": "whc",
        "name": "AlcalÃ¡ de Henares",
        "name:ar": "Ø§Ù„Ù‚Ù„Ø¹Ø© Ø§Ù„Ø­Ø¬Ø§Ø±Ø©",
        "name:el": "Î‘Î»ÎºÎ±Î»Î¬ Î½Ï„Îµ Î•Î½Î¬ÏÎµÏ‚",
        "name:es": "AlcalÃ¡ de Henares",
        "name:fa": "Ø§Ù„Ú©Ø§Ù„Ø§ Ø¯ Ù‡Ù†Ø§Ø±Ø³",
        "name:hu": "AlcalÃ¡ de Henares",
        "name:lt": "Alkala de Henaresas",
        "name:ru": "ĞĞ»ÑŒĞºĞ°Ğ»Ğ°-Ğ´Ğµ-Ğ­Ğ½Ğ°Ñ€ĞµÑ",
        "name:sr": "ĞĞ»ĞºĞ°Ğ»Ğ° Ğ´Ğµ Ğ•Ğ½Ğ°Ñ€ĞµÑ",
        "name:uk": "ĞĞ»ÑŒĞºĞ°Ğ»Ğ°-Ğ´Ğµ-Ğ•Ğ½Ğ°Ñ€ĞµÑ",
        "name:ur": "Ø§Ù„Ú©Ø§Ù„Ø§ Ø¯Û’ Ø§ÛŒÙ†Ø§Ø±ÛŒØ³",
        "place": "city",
        "population": "196675",
        "population:date": "2022",
        "ref:ine": "28005000101",
        "source": "Instituto GeogrÃ¡fico Nacional",
        "source:date": "2011-06",
        "source:ele": "MDT5",
        "source:name": "NomenclÃ¡tor GeogrÃ¡fico de Municipios y Entidades de PoblaciÃ³n",
        "wikidata": "Q46940",
        "wikipedia": "es:AlcalÃ¡ de Henares"
      }
    },
    {
      "type": "node",
      "id": 230421116,
      "lat": 40.4587767,
      "lon": -3.4793343,
      "tags": {
        "capital": "8",
        "ele": "586",
        "name": "TorrejÃ³n de Ardoz",
        "name:es": "TorrejÃ³n de Ardoz",
        "name:hu": "TorrejÃ³n de Ardoz",
        "name:lt": "Torechon de Ardosas",
        "name:ru": "Ğ¢Ğ¾Ñ€Ñ€ĞµÑ…Ğ¾Ğ½-Ğ´Ğµ-ĞÑ€Ğ´Ğ¾Ñ",
        "name:sr": "Ğ¢Ğ¾Ñ€ĞµÑ…Ğ¾Ğ½ Ğ´Ğµ ĞÑ€Ğ´Ğ¾Ñ",
        "name:uk": "Ğ¢Ğ¾Ñ€Ñ€ĞµÑ…Ğ¾Ğ½-Ğ´Ğµ-ĞÑ€Ğ´Ğ¾Ñ",
        "place": "city",
        "population": "133456",
        "population:date": "2022",
        "postal_code": "28850",
        "ref:ine": "28148000101",
        "source": "Instituto GeogrÃ¡fico Nacional",
        "source:date": "2011-06",
        "source:ele": "MDT5",
        "source:name": "NomenclÃ¡tor GeogrÃ¡fico de Municipios y Entidades de PoblaciÃ³n",
        "wikidata": "Q489839",
        "wikipedia": "es:TorrejÃ³n de Ardoz"
      }
    },
    {
      "type": "node",
      "id": 232712665,
      "lat": 39.9860347,
      "lon": -0.0377354,
      "tags": {
        "capital": "6",
        "ele": "34",
        "name": "CastellÃ³ de la Plana",
        "name:be": "ĞšĞ°ÑÑ‚ÑĞ»ÑŒÑ‘Ğ½-Ğ´Ñ-Ğ»Ğ°-ĞŸĞ»Ğ°Ğ½Ğ°",
        "name:ca": "CastellÃ³ de la Plana",
        "name:el": "ÎšÎ±ÏƒÏ„ÎµÎ³Î¹ÏŒÎ½ Î´Îµ Î»Î± Î Î»Î¬Î½Î±",
        "name:en": "CastellÃ³ de la Plana",
        "name:es": "CastellÃ³n de la Plana",
        "name:gl": "CastellÃ³n da Prana",
        "name:it": "CastellÃ³ de la Plana",
        "name:ja": "ã‚«ã‚¹ãƒ†ãƒªãƒ§ãƒ³ãƒ»ãƒ‡ãƒ»ãƒ©ãƒ»ãƒ—ãƒ©ãƒŠ",
        "name:oc": "Castelhon de la Plana",
        "name:ru": "ĞšĞ°ÑÑ‚ĞµĞ»ÑŒĞ¾Ğ½-Ğ´Ğµ-Ğ»Ğ°-ĞŸĞ»Ğ°Ğ½Ğ°",
        "name:sr": "ĞšĞ°ÑÑ‚ĞµÑ™Ğ¾Ğ½ Ğ´Ğµ Ğ»Ğ° ĞŸĞ»Ğ°Ğ½Ğ°",
        "official_name": "CastellÃ³ de la Plana",
        "place": "city",
        "population": "144709",
        "population:date": "2022",
        "postal_code": "12001",
        "ref:ine": "12040000101",
        "source": "Instituto GeogrÃ¡fico Nacional",
        "source:date": "2011-06",
        "source:ele": "MDT5",
        "source:name": "NomenclÃ¡tor GeogrÃ¡fico de Municipios y Entidades de PoblaciÃ³n",
        "wikidata": "Q15092",
        "wikipedia": "ca:CastellÃ³ de la Plana"
      }
    },
    {
      "type": "node",
      "id": 240357542,
      "lat": 39.4745175,
      "lon": -6.3716761,
      "tags": {
        "alt_name:ar": "Ù‚Ø´Ø±Ø´;ÙƒØ§Ø«ÙŠØ±ÙŠØ³;ÙƒØ§Ø«ÙŠØ±Ø³",
        "capital": "6",
        "ele": "457",
        "heritage": "1",
        "heritage:operator": "whc",
        "name": "CÃ¡ceres",
        "name:ar": "Ù‚ØµØ±Ø´",
        "name:be": "ĞšĞ°ÑĞµÑ€ÑÑ",
        "name:ca": "CÃ ceres",
        "name:el": "ÎšÎ¬Î¸ÎµÏÎµÏ‚",
        "name:es": "CÃ¡ceres",
        "name:ext": "CaÃ§ris",
        "name:fa": "Ú©Ø§Ø³Ø±Ø³",
        "name:ja": "ã‚«ã‚»ãƒ¬ã‚¹",
        "name:lt": "Kaseresas",
        "name:ru": "ĞšĞ°ÑĞµÑ€ĞµÑ",
        "name:ur": "Ú©Ø§Ú©ÛŒØ±ÛŒØ³",
        "name:zh": "å¡å¡é›·æ–¯",
        "place": "city",
        "population": "94337",
        "population:date": "2022",
        "ref:ine": "10037000101",
        "source": "Instituto GeogrÃ¡fico Nacional",
        "source:date": "2011-06",
        "source:ele": "MDT5",
        "source:name": "NomenclÃ¡tor GeogrÃ¡fico de Municipios y Entidades de PoblaciÃ³n",
        "website": "https://www.ayto-caceres.es/",
        "wikidata": "Q15678",
        "wikipedia": "es:CÃ¡ceres"
      }
    },
    {
      "type": "node",
      "id": 240422991,
      "lat": 40.0661031,
      "lon": -2.1313528,
      "tags": {
        "alt_name:ar": "Ù‚ÙˆÙ†Ù‚Ø©;ÙƒÙˆÙ†ÙŠÙƒØ§",
        "capital": "6",
        "ele": "997",
        "heritage": "1",
        "heritage:operator": "whc",
        "name": "Cuenca",
        "name:ar": "Ù‚ÙˆÙ†ÙƒØ©",
        "name:be": "ĞšÑƒÑĞ½ĞºĞ°",
        "name:ca": "Conca",
        "name:el": "ÎšÎ¿Ï…Î­Î½ÎºÎ±",
        "name:es": "Cuenca",
        "name:la": "Concha",
        "name:lt": "Kuenka",
        "name:ru": "ĞšÑƒÑĞ½ĞºĞ°",
        "name:sr": "ĞšÑƒĞµĞ½ĞºĞ°",
        "place": "city",
        "population": "52353",
        "population:date": "2022",
        "ref:ine": "16078000301",
        "ref:whc": "781",
        "source": "Instituto GeogrÃ¡fico Nacional",
        "source:date": "2011-06",
        "source:ele": "MDT5",
        "source:name": "NomenclÃ¡tor GeogrÃ¡fico de Municipios y Entidades de PoblaciÃ³n",
        "whc:criteria": "(ii)(v)",
        "whc:inscription_date": "1996",
        "wikidata": "Q15098",
        "wikipedia": "es:Cuenca (EspaÃ±a)"
      }
    },
    {
      "type": "node",
      "id": 240422994,
      "lat": 36.5297438,
      "lon": -6.2928976,
      "tags": {
        "capital": "6",
        "ele": "13",
        "heritage": "3",
        "heritage:operator": "Junta de AndalucÃ­a",
        "name": "CÃ¡diz",
        "name:ar": "Ù‚Ø§Ø¯Ø³",
        "name:be": "ĞšĞ°Ğ´Ñ‹Ñ",
        "name:ca": "Cadis",
        "name:el": "ÎšÎ¬Î´Î¹Î¸",
        "name:eu": "Karize",
        "name:fr": "Cadix",
        "name:ja": "ã‚«ãƒ‡ã‚£ã‚¹",
        "name:la": "Gadira",
        "name:ml": "à´•à´¾à´¡à´¿à´¸àµ",
        "name:pl": "Kadyks",
        "name:pt": "CÃ¡dis",
        "name:ru": "ĞšĞ°Ğ´Ğ¸Ñ",
        "name:sr": "ĞšĞ°Ğ´Ğ¸Ğ·",
        "name:zh-Hans": "åŠ çš„æ–¯",
        "name:zh-Hant": "åŠ çš„æ–¯",
        "place": "city",
        "population": "113066",
        "population:date": "2022",
        "ref:ine": "11012000101",
        "source": "Instituto GeogrÃ¡fico Nacional",
        "source:date": "2011-06",
        "source:ele": "MDT5",
        "source:name": "NomenclÃ¡tor GeogrÃ¡fico de Municipios y Entidades de PoblaciÃ³n",
        "wikidata": "Q15682",
        "wikipedia": "es:CÃ¡diz"
      }
    },
    {
      "type": "node",
      "id": 240422997,
      "lat": 36.8414197,
      "lon": -2.4628135,
      "tags": {
        "alt_name:ar": "Ø§Ù„Ù…ÙŠØ±ÙŠØ§",
        "capital": "6",
        "ele": "23",
        "name": "AlmerÃ­a",
        "name:ar": "Ø£Ù„Ù…Ø±ÙŠØ©",
        "name:be": "ĞĞ»ÑŒĞ¼ĞµÑ€Ñ‹Ñ",
        "name:ca": "Almeria",
        "name:el": "Î‘Î»Î¼ÎµÏÎ¯Î±",
        "name:en": "Almeria",
        "name:ext": "Almeria",
        "name:fr": "AlmÃ©ria",
        "name:ja": "ã‚¢ãƒ«ãƒ¡ãƒªã‚¢",
        "name:lt": "Almerija",
        "name:oc": "Almeria",
        "name:pt": "Almeria",
        "name:ru": "ĞĞ»ÑŒĞ¼ĞµÑ€Ğ¸Ñ",
        "name:sr": "ĞĞ»Ğ¼ĞµÑ€Ğ¸Ñ˜Ğ°",
        "name:tr": "Meriye",
        "place": "city",
        "population": "167051",
        "population:date": "2022",
        "postal_code": "04001-04009",
        "ref:ine": "04013000101",
        "source": "Instituto GeogrÃ¡fico Nacional",
        "source:date": "2011-06",
        "source:ele": "MDT5",
        "source:name": "NomenclÃ¡tor GeogrÃ¡fico de Municipios y Entidades de PoblaciÃ³n",
        "website": "http://www.aytoalmeria.es/",
        "wikidata": "Q112795541"
      }
    },
    {
      "type": "node",
      "id": 240423001,
      "lat": 38.878187,
      "lon": -6.9701115,
      "tags": {
        "alt_name:ar": "Ø¨Ø§Ø¯Ø§Ø®ÙˆØ²",
        "capital": "6",
        "name": "Badajoz",
        "name:ar": "Ø¨Ø·Ù„ÙŠÙˆØ³",
        "name:ast": "Badaxoz",
        "name:be": "Ğ‘Ğ°Ğ´Ğ°Ñ…Ğ°Ñ",
        "name:el": "ÎœÏ€Î±Î´Î±Ï‡ÏŒÎ¸",
        "name:es": "Badajoz",
        "name:ext": "BaajÃ³s",
        "name:fa": "Ø¨Ø§Ø¯Ø§Ø®ÙˆØ³",
        "name:hu": "Badajoz",
        "name:la": "Pax Augusta",
        "name:lt": "Badachosas",
        "name:ru": "Ğ‘Ğ°Ğ´Ğ°Ñ…Ğ¾Ñ",
        "name:tr": "Batalyevs",
        "name:ur": "Ø¨Ø·Ù„ÙŠÙˆØ³",
        "place": "city",
        "population": "124652",
        "population:date": "2022",
        "ref:ine": "06015000402",
        "source": "Instituto GeogrÃ¡fico Nacional",
        "wikidata": "Q15679",
        "wikipedia": "es:Badajoz"
      }
    },
    {
      "type": "node",
      "id": 240423005,
      "lat": 40.3436719,
      "lon": -1.1081939,
      "tags": {
        "alt_name:ar": "ØªÙŠØ±ÙˆÙŠÙ„",
        "capital": "6",
        "ele": "915",
        "heritage": "3",
        "heritage:operator": "Gobierno de AragÃ³n",
        "idee:name": "Teruel",
        "name": "Teruel",
        "name:an": "Teruel",
        "name:ar": "Ø·Ø±ÙˆÙŠÙ„",
        "name:be": "Ğ¢ÑÑ€ÑƒÑĞ»ÑŒ",
        "name:bg": "Ğ¢ĞµÑ€ÑƒĞµĞ»",
        "name:ca": "Terol",
        "name:el": "Î¤ÎµÏÎ¿Ï…Î­Î»",
        "name:en": "Teruel",
        "name:eo": "Teruelo",
        "name:es": "Teruel",
        "name:eu": "Teruel",
        "name:fa": "ØªØ±ÙˆØ¦Ù„",
        "name:fr": "Teruel",
        "name:gl": "Teruel",
        "name:he": "×˜×¨×•××œ",
        "name:ja": "ãƒ†ãƒ«ã‚¨ãƒ«",
        "name:ka": "áƒ¢áƒ”áƒ áƒ£áƒ”áƒšáƒ˜",
        "name:kk": "Ğ¢ĞµÑ€ÑƒÑĞ»ÑŒ",
        "name:ko": "í…Œë£¨ì—˜",
        "name:la": "Terulium",
        "name:lt": "Teruelis",
        "name:oc": "TerÃ²l",
        "name:pt": "Teruel",
        "name:ru": "Ğ¢ĞµÑ€ÑƒÑĞ»ÑŒ",
        "name:sr": "Ğ¢ĞµÑ€ÑƒĞµĞ»",
        "name:uk": "Ğ¢ĞµÑ€ÑƒĞµĞ»ÑŒ",
        "name:ur": "ØªÛŒØ±ÙˆÛŒÙ„",
        "name:wuu": "ç‰¹é²è‰¾",
        "name:yue": "ç‰¹é­¯åŸƒçˆ¾",
        "name:zh": "ç‰¹é­¯åŸƒçˆ¾",
        "name:zh-Hans": "ç‰¹é²åŸƒå°”",
        "place": "city",
        "population": "32622",
        "population:date": "2022",
        "ref:ine": "44216000801",
        "source": "Instituto GeogrÃ¡fico Nacional",
        "source:date": "2011-06",
        "source:ele": "MDT5",
        "source:name": "NomenclÃ¡tor GeogrÃ¡fico de Municipios y Entidades de PoblaciÃ³n",
        "wikidata": "Q14336",
        "wikipedia": "an:Teruel"
      }
    },
    {
      "type": "node",
      "id": 240423007,
      "lat": 41.7633842,
      "lon": -2.4642041,
      "tags": {
        "alt_name:ar": "Ø³Ø±ÙŠØ©;Ø³ÙˆØ±ÙŠØ§",
        "capital": "6",
        "ele": "1061",
        "name": "Soria",
        "name:am": "áˆ¶áˆªáŠ ",
        "name:ar": "Ø³Ø±ÙŠØ§",
        "name:be": "Ğ¡Ğ¾Ñ€Ñ‹Ñ",
        "name:ca": "SÃ²ria",
        "name:el": "Î£ÏŒÏÎ¹Î±",
        "name:fa": "Ø³Ø±ÛŒØ§",
        "name:he": "×¡×•×¨×™×”",
        "name:hy": "ÕÕ¸Ö€Õ«Õ¡",
        "name:ja": "ã‚½ãƒªã‚¢",
        "name:ka": "áƒ¡áƒáƒ áƒ˜áƒ",
        "name:ko": "ì†Œë¦¬ì•„",
        "name:pt": "SÃ³ria",
        "name:ru": "Ğ¡Ğ¾Ñ€Ğ¸Ñ",
        "name:sr": "Ğ¡Ğ¾Ñ€Ğ¸Ñ˜Ğ°",
        "name:uk": "Ğ¡Ğ¾Ñ€Ñ–Ñ",
        "name:ur": "Ø³Ø±ÛŒØ§",
        "name:zh": "ç´¢é‡Œäºš",
        "place": "city",
        "population": "39137",
        "population:date": "2022",
        "ref:ine": "42173000401",
        "source": "Instituto GeogrÃ¡fico Nacional",
        "source:date": "2011-06",
        "source:ele": "MDT5",
        "source:name": "NomenclÃ¡tor GeogrÃ¡fico de Municipios y Entidades de PoblaciÃ³n",
        "wikidata": "Q12155",
        "wikipedia": "es:Soria"
      }
    },
    {
      "type": "node",
      "id": 240423010,
      "lat": 40.9651572,
      "lon": -5.6640182,
      "tags": {
        "alt_name:ar": "Ø³Ù„Ù…Ø§Ù†ÙƒØ§",
        "capital": "6",
        "ele": "798",
        "heritage": "1",
        "heritage:operator": "whc",
        "name": "Salamanca",
        "name:am": "áˆ³áˆ‹áˆ›áŠ•áŠ«",
        "name:ar": "Ø´Ù„Ù…Ù†Ù‚Ø©",
        "name:be": "Ğ¡Ğ°Ğ»Ğ°Ğ¼Ğ°Ğ½ĞºĞ°",
        "name:el": "Î£Î±Î»Î±Î¼Î¬Î½ÎºÎ±",
        "name:es": "Salamanca",
        "name:fa": "Ø³Ø§Ù„Ø§Ù…Ø§Ù†Ú©Ø§",
        "name:fr": "Salamanque",
        "name:he": "×¡×œ×× ×§×”",
        "name:hi": "à¤¸à¤¾à¤²à¤¾à¤®à¤¾à¤¨à¤•à¤¾",
        "name:hy": "ÕÕ¡Õ¬Õ¡Õ´Õ¡Õ¶Õ¯Õ¡",
        "name:ja": "ã‚µãƒ©ãƒãƒ³ã‚«",
        "name:ka": "áƒ¡áƒáƒšáƒáƒ›áƒáƒœáƒ™áƒ",
        "name:ko": "ì‚´ë¼ë§ì¹´",
        "name:lt": "Salamanka",
        "name:mr": "à¤¸à¤¾à¤²à¤¾à¤®à¤¾à¤‚à¤•à¤¾",
        "name:pa": "à¨¸à¨¾à¨²à¨¾à¨®à¨¾à¨¨à¨•à¨¾",
        "name:pl": "Salamanka",
        "name:ru": "Ğ¡Ğ°Ğ»Ğ°Ğ¼Ğ°Ğ½ĞºĞ°",
        "name:sa": "à¤¸à¤¾à¤²à¤¾à¤®à¤¾à¤¨à¥à¤•à¤¾",
        "name:sr": "Ğ¡Ğ°Ğ»Ğ°Ğ¼Ğ°Ğ½ĞºĞ°",
        "name:ta": "à®šà®²à®®à®©à¯à®•à®¾",
        "name:th": "à¸‹à¸²à¸¥à¸²à¸¡à¸±à¸‡à¸à¸²",
        "name:uk": "Ğ¡Ğ°Ğ»Ğ°Ğ¼Ğ°Ğ½ĞºĞ°",
        "name:ur": "Ø³Ø§Ù„Ø§Ù…Ø§Ù†Ú©Ø§",
        "name:zh": "è–©æ‹‰æ›¼å¡/è¨æ‹‰æ›¼å¡",
        "place": "city",
        "population": "142412",
        "population:date": "2022",
        "ref:ine": "37274000201",
        "source": "Instituto GeogrÃ¡fico Nacional",
        "source:date": "2011-06",
        "source:ele": "MDT5",
        "source:name": "NomenclÃ¡tor GeogrÃ¡fico de Municipios y Entidades de PoblaciÃ³n",
        "wikidata": "Q15695",
        "wikipedia": "es:Salamanca"
      }
    },
    {
      "type": "node",
      "id": 240423012,
      "lat": 42.0108856,
      "lon": -4.5328735,
      "tags": {
        "capital": "6",
        "ele": "734",
        "name": "Palencia",
        "name:am": "á“áˆŒáŠ•áˆ²áŠ ",
        "name:an": "Palenzia",
        "name:ar": "Ø¨Ø§Ù„Ù†Ø«ÙŠØ§",
        "name:be": "ĞŸĞ°Ğ»ĞµĞ½ÑÑ–Ñ",
        "name:ca": "PalÃ¨ncia",
        "name:el": "Î Î±Î»Î­Î½Î¸Î¹Î±",
        "name:es": "Palencia",
        "name:eu": "Palentzia",
        "name:fa": "Ù¾Ø§Ù„Ù†Ø³ÛŒØ§",
        "name:he": "×¤×œ× ×¡×™×”",
        "name:hy": "ÕŠÕ¡Õ¬Õ¥Õ¶Õ½Õ«Õ¡",
        "name:ja": "ãƒ‘ãƒ¬ãƒ³ã‚·ã‚¢",
        "name:ka": "áƒáƒáƒšáƒ”áƒœáƒ¡áƒ˜áƒ",
        "name:ko": "íŒ”ë Œì‹œì•„",
        "name:la": "Palantia",
        "name:oc": "PalÃ©ncia",
        "name:pt": "PalÃªncia",
        "name:ru": "ĞŸĞ°Ğ»ĞµĞ½ÑĞ¸Ñ",
        "name:sr": "ĞŸĞ°Ğ»ĞµĞ½ÑĞ¸Ñ˜Ğ°",
        "name:uk": "ĞŸĞ°Ğ»ĞµĞ½ÑÑ–Ñ",
        "name:zh": "å¸•ä¼¦è¥¿äºš",
        "place": "city",
        "population": "74094",
        "population:date": "2022",
        "ref:ine": "34120000101",
        "source": "Instituto GeogrÃ¡fico Nacional",
        "source:date": "2011-06",
        "source:ele": "MDT5",
        "source:name": "NomenclÃ¡tor GeogrÃ¡fico de Municipios y Entidades de PoblaciÃ³n",
        "wikidata": "Q56250654",
        "wikipedia": "es:Palencia"
      }
    },
    {
      "type": "node",
      "id": 240423022,
      "lat": 37.2575874,
      "lon": -6.9484945,
      "tags": {
        "alt_name:ar": "Ù‡ÙŠÙˆÙ„ÙŠÙØ§;ÙˆÙ„ÙØ§",
        "capital": "6",
        "ele": "24",
        "name": "Huelva",
        "name:ar": "ÙˆÙ„Ø¨Ø©",
        "name:be": "Ğ£ÑĞ»ÑŒĞ²Ğ°",
        "name:el": "ÎŸÏ…Î­Î»Î²Î±",
        "name:es": "Huelva",
        "name:ja": "ã‚¦ã‚¨ãƒ«ãƒ",
        "name:lt": "Huelva",
        "name:ru": "Ğ£ÑĞ»ÑŒĞ²Ğ°",
        "name:sr": "Ğ£ĞµĞ»Ğ²Ğ°",
        "place": "city",
        "population": "141527",
        "population:date": "2022",
        "ref:ine": "21041000101",
        "source": "Instituto GeogrÃ¡fico Nacional",
        "source:date": "2011-06",
        "source:ele": "MDT5",
        "source:name": "NomenclÃ¡tor GeogrÃ¡fico de Municipios y Entidades de PoblaciÃ³n",
        "wikidata": "Q12246",
        "wikipedia": "es:Huelva"
      }
    },
    {
      "type": "node",
      "id": 240423025,
      "lat": 37.1734995,
      "lon": -3.5995337,
      "tags": {
        "capital": "6",
        "ele": "684",
        "name": "Granada",
        "name:ar": "ØºØ±Ù†Ø§Ø·Ø©",
        "name:be": "Ğ“Ñ€Ğ°Ğ½Ğ°Ğ´Ğ°",
        "name:el": "Î“ÏÎ±Î½Î¬Î´Î±",
        "name:en": "Granada",
        "name:fr": "Grenade",
        "name:he": "×’×¨× ×“×”",
        "name:ja": "ã‚°ãƒ©ãƒŠãƒ€",
        "name:lt": "Granada",
        "name:ml": "à´—àµà´°à´¨à´¾à´¤àµà´¤",
        "name:oc": "Granada",
        "name:pl": "Grenada",
        "name:ru": "Ğ“Ñ€Ğ°Ğ½Ğ°Ğ´Ğ°",
        "name:sr": "Ğ“Ñ€Ğ°Ğ½Ğ°Ğ´Ğ°",
        "name:tr": "GÄ±rnata",
        "name:uk": "Ğ“Ñ€Ğ°Ğ½Ğ°Ğ´Ğ°",
        "name:zh": "æ ¼æ‹‰çº³è¾¾",
        "place": "city",
        "population": "223857",
        "population:date": "2022",
        "ref:ine": "18087000401",
        "source": "Instituto GeogrÃ¡fico Nacional",
        "source:date": "2011-06",
        "source:ele": "MDT5",
        "source:name": "NomenclÃ¡tor GeogrÃ¡fico de Municipios y Entidades de PoblaciÃ³n",
        "source:name:oc": "Lo CongrÃ¨s",
        "wikidata": "Q8810",
        "wikipedia": "es:Granada"
      }
    },
    {
      "type": "node",
      "id": 248815337,
      "lat": 37.283689,
      "lon": -5.9226718,
      "tags": {
        "alt_name:el": "ÎÏ„Î¿Ï‚ Î§ÎµÏÎ¼Î¬Î½Î±Ï‚",
        "capital": "8",
        "ele": "52",
        "name": "Dos Hermanas",
        "name:ar": "Ø¯ÙˆØ³ Ø¥ÙŠØ±Ù…Ø§Ù†Ø§Ø³",
        "name:el": "ÎÏ„Î¿Ï‚ Î•ÏÎ¼Î¬Î½Î±Ï‚",
        "name:hu": "Dos Hermanas",
        "name:ru": "Ğ”Ğ¾Ñ-Ğ­Ñ€Ğ¼Ğ°Ğ½Ğ°Ñ",
        "name:sr": "Ğ”Ğ¾Ñ Ğ•Ñ€Ğ¼Ğ°Ğ½Ğ°Ñ",
        "name:zh-Hans": "å¤šæ–¯åŸƒå°”é©¬çº³æ–¯",
        "name:zh-Hant": "å¤šæ–¯åŸƒçˆ¾é¦¬ç´æ–¯",
        "place": "city",
        "population": "96415",
        "population:date": "2022",
        "ref:ine": "41038000101",
        "source": "Instituto GeogrÃ¡fico Nacional",
        "source:date": "2011-06",
        "source:ele": "MDT5",
        "source:name": "NomenclÃ¡tor GeogrÃ¡fico de Municipios y Entidades de PoblaciÃ³n",
        "wikidata": "Q489205",
        "wikipedia": "es:Dos Hermanas"
      }
    },
    {
      "type": "node",
      "id": 248820656,
      "lat": 37.3886303,
      "lon": -5.9953403,
      "tags": {
        "alt_name:ar": "Ø³ÙŠÙÙŠÙ„Ø§",
        "alt_name:gl": "Sevilha",
        "capital": "4",
        "ele": "7",
        "name": "Sevilla",
        "name:ar": "Ø¥Ø´Ø¨ÙŠÙ„ÙŠØ©",
        "name:be": "Ğ¡ĞµĞ²Ñ–Ğ»ÑŒÑ",
        "name:ca": "Sevilla",
        "name:de": "Sevilla",
        "name:el": "Î£ÎµÎ²Î¯Î»Î»Î·",
        "name:en": "Seville",
        "name:es": "Sevilla",
        "name:fr": "SÃ©ville",
        "name:gl": "Sevilla",
        "name:hr": "Sevilla",
        "name:it": "Siviglia",
        "name:ja": "ã‚»ãƒ“ãƒªã‚¢",
        "name:ml": "à´¸àµ†à´µà´¿à´²àµà´²",
        "name:nl": "Sevilla",
        "name:pl": "Sewilla",
        "name:pt": "Sevilha",
        "name:ru": "Ğ¡ĞµĞ²Ğ¸Ğ»ÑŒÑ",
        "name:sl": "Sevilja",
        "name:sr": "Ğ¡ĞµĞ²Ğ¸Ñ™Ğ°",
        "name:tr": "Ä°ÅŸbÃ®liye",
        "name:uk": "Ğ¡ĞµĞ²Ñ–Ğ»ÑŒÑ",
        "name:zh": "å¡ç¶­äº",
        "name:zh-Hans": "å¡ç»´åˆ©äºš",
        "name:zh-Hant": "å¡ç¶­äº",
        "place": "city",
        "population": "681288",
        "population:date": "2022",
        "ref:ine": "41091000201",
        "source": "Instituto GeogrÃ¡fico Nacional",
        "source:date": "2011-06",
        "source:name": "NomenclÃ¡tor GeogrÃ¡fico de Municipios y Entidades de PoblaciÃ³n",
        "wikidata": "Q8717",
        "wikipedia": "en:Seville"
      }
    },
    {
      "type": "node",
      "id": 252217933,
      "lat": 38.9174665,
      "lon": -6.3443977,
      "tags": {
        "alt_name:ar": "Ù…Ø±ÙŠØ¯Ø§",
        "capital": "4",
        "ele": "224",
        "name": "MÃ©rida",
        "name:ar": "Ù…Ø§Ø±Ø¯Ø©",
        "name:be": "ĞœĞµÑ€Ñ‹Ğ´Ğ°",
        "name:ca": "MÃ¨rida",
        "name:el": "ÎœÎ­ÏÎ¹Î´Î±",
        "name:fa": "Ù…Ø±ÛŒØ¯Ø§",
        "name:lt": "Merida",
        "name:ru": "ĞœĞµÑ€Ğ¸Ğ´Ğ°",
        "name:ur": "Ù…ÛŒØ±ÛŒØ¯Ø§",
        "place": "city",
        "population": "58120",
        "population:date": "2022",
        "ref:ine": "06083001201",
        "source:ele": "MDT5",
        "wikidata": "Q14323",
        "wikipedia": "es:MÃ©rida (EspaÃ±a)"
      }
    },
    {
      "type": "node",
      "id": 252566396,
      "lat": 41.5421013,
      "lon": 2.1138977,
      "tags": {
        "capital": "7",
        "ele": "191",
        "name": "Sabadell",
        "name:ca": "Sabadell",
        "name:el": "Î£Î±Î²Î±Î´Î­Î»",
        "name:lt": "Sabadelis",
        "name:ru": "Ğ¡Ğ°Ğ±Ğ°Ğ´ĞµĞ»ÑŒ",
        "place": "city",
        "population": "194300",
        "population:date": "2022",
        "ref:ine": "08187000301",
        "source": "Instituto GeogrÃ¡fico Nacional",
        "source:date": "2011-06",
        "source:ele": "MDT5",
        "source:name": "NomenclÃ¡tor GeogrÃ¡fico de Municipios y Entidades de PoblaciÃ³n",
        "wikidata": "Q12258",
        "wikipedia": "ca:Sabadell"
      }
    },
    {
      "type": "node",
      "id": 256150802,
      "lat": 40.5400082,
      "lon": -3.6358494,
      "tags": {
        "capital": "8",
        "ele": "669",
        "name": "Alcobendas",
        "name:ar": "Ø£Ù„ÙƒÙˆØ¨ÙŠÙ†Ø¯Ø§Ø³",
        "name:hu": "Alcobendas",
        "name:ru": "ĞĞ»ÑŒĞºĞ¾Ğ±ĞµĞ½Ğ´Ğ°Ñ",
        "name:sr": "ĞĞ»ĞºĞ¾Ğ±ĞµĞ½Ğ´Ğ°Ñ",
        "place": "city",
        "population": "116933",
        "population:date": "2022",
        "ref:ine": "28006000101",
        "source": "Instituto GeogrÃ¡fico Nacional",
        "source:date": "2011-06",
        "source:ele": "MDT5",
        "source:name": "NomenclÃ¡tor GeogrÃ¡fico de Municipios y Entidades de PoblaciÃ³n",
        "wikidata": "Q487679",
        "wikipedia": "es:Alcobendas"
      }
    },
    {
      "type": "node",
      "id": 257352079,
      "lat": 42.4661196,
      "lon": -2.4396676,
      "tags": {
        "capital": "4",
        "ele": "384",
        "name": "LogroÃ±o",
        "name:ar": "Ù„ÙˆØºØ±ÙˆÙ†ÙŠÙˆ",
        "name:be": "Ğ›Ğ°Ğ³Ñ€Ğ¾Ğ½ÑŒÑ",
        "name:ca": "Logronyo",
        "name:el": "Î›Î¿Î³ÏÏŒÎ½Î¹Î¿",
        "name:eu": "LogroÃ±o",
        "name:ja": "ãƒ­ã‚°ãƒ­ãƒ¼ãƒ‹ãƒ§",
        "name:ru": "Ğ›Ğ¾Ğ³Ñ€Ğ¾Ğ½ÑŒĞ¾",
        "name:sr": "Ğ›Ğ¾Ğ³Ñ€Ğ¾ÑšĞ¾",
        "place": "city",
        "population": "147658",
        "population:date": "2022",
        "ref:ine": "26089000201",
        "source": "Instituto GeogrÃ¡fico Nacional",
        "source:date": "2011-06",
        "source:ele": "MDT5",
        "source:name": "NomenclÃ¡tor GeogrÃ¡fico de Municipios y Entidades de PoblaciÃ³n",
        "wikidata": "Q14325"
      }
    },
    {
      "type": "node",
      "id": 259219046,
      "lat": 40.6326979,
      "lon": -3.1646067,
      "tags": {
        "alt_name:ar": "ØºÙˆØ§Ø¯Ø§Ù„Ø§Ø¬Ø§Ø±Ø§",
        "capital": "6",
        "ele": "685",
        "name": "Guadalajara",
        "name:ar": "ÙˆØ§Ø¯ÙŠ Ø§Ù„Ø­Ø¬Ø§Ø±Ø©",
        "name:be": "Ğ“Ğ²Ğ°Ğ´Ğ°Ğ»Ğ°Ñ…Ğ°Ñ€Ğ°",
        "name:ca": "Guadalajara",
        "name:el": "Î“Î¿Ï…Î±Î´Î±Î»Î±Ï‡Î¬ÏÎ±",
        "name:es": "Guadalajara",
        "name:fa": "Ú¯ÙˆØ§Ø¯Ø§Ù„Ø§Ø®Ø§Ø±Ø§",
        "name:ja": "ã‚°ã‚¢ãƒ€ãƒ©ãƒãƒ©",
        "name:oc": "Guadalajara",
        "name:ru": "Ğ“Ğ²Ğ°Ğ´Ğ°Ğ»Ğ°Ñ…Ğ°Ñ€Ğ°",
        "name:sr": "Ğ“Ğ²Ğ°Ğ´Ğ°Ğ»Ğ°Ñ…Ğ°Ñ€Ğ°",
        "name:ur": "Ú¯ÙˆØ§Ø¯Ø§Ù„Ø§Ø®Ø§Ø±Ø§",
        "old_name:ar": "Ù…Ø¯ÙŠÙ†Ø© Ø§Ù„ÙØ±Ø¬",
        "place": "city",
        "population": "85132",
        "population:date": "2022",
        "ref:ine": "19130000101",
        "source": "Instituto GeogrÃ¡fico Nacional",
        "source:date": "2011-06",
        "source:ele": "MDT5",
        "source:name": "NomenclÃ¡tor GeogrÃ¡fico de Municipios y Entidades de PoblaciÃ³n",
        "source:name:oc": "Lo CongrÃ¨s",
        "wikidata": "Q11953"
      }
    },
    {
      "type": "node",
      "id": 260379284,
      "lat": 37.6019353,
      "lon": -0.9841152,
      "tags": {
        "alt_name:el": "ÎšÎ±ÏÏ„Î±Ï‡Î­Î½Î±",
        "capital": "7",
        "ele": "67",
        "name": "Cartagena",
        "name:ar": "Ù‚Ø±Ø·Ø§Ø¬Ù†Ø©",
        "name:ca": "Cartagena",
        "name:el": "ÎšÎ±ÏÎ¸Î±Î³Î­Î½Î·",
        "name:es": "Cartagena",
        "name:fr": "CarthagÃ¨ne",
        "name:lt": "Kartachena",
        "name:oc": "Cartagena",
        "name:pl": "Kartagena",
        "name:ru": "ĞšĞ°Ñ€Ñ‚Ğ°Ñ…ĞµĞ½Ğ°",
        "name:sr": "ĞšĞ°Ñ€Ñ‚Ğ°Ñ…ĞµĞ½Ğ°",
        "name:uk": "ĞšĞ°Ñ€Ñ‚Ğ°Ñ…ĞµĞ½Ğ°",
        "old_name": "Carthago Nova",
        "place": "city",
        "population": "218244",
        "wikidata": "Q162615",
        "wikipedia": "es:Cartagena (EspaÃ±a)"
      }
    },
    {
      "type": "node",
      "id": 260380069,
      "lat": 37.9923795,
      "lon": -1.1305431,
      "tags": {
        "capital": "4",
        "ele": "42",
        "name": "Murcia",
        "name:ar": "Ù…Ø±Ø³ÙŠØ©",
        "name:be": "ĞœÑƒÑ€ÑÑ–Ñ",
        "name:ca": "MÃºrcia",
        "name:el": "ÎœÎ¿ÏÏÎ¸Î¹Î±",
        "name:es": "Murcia",
        "name:eu": "Murtzia",
        "name:fr": "Murcie",
        "name:lt": "Mursija",
        "name:ml": "à´®àµàµ¼à´¸à´¿à´¯",
        "name:oc": "MÃºrcia",
        "name:pt": "MÃºrcia",
        "name:ru": "ĞœÑƒÑ€ÑĞ¸Ñ",
        "name:sr": "ĞœÑƒÑ€ÑĞ¸Ñ˜Ğ°",
        "name:tr": "MÃ¼rsiye",
        "name:uk": "ĞœÑƒÑ€ÑÑ–Ñ",
        "name:zh-Hans": "æœ¨å°”è¥¿äºš",
        "name:zh-Hant": "æœ¨çˆ¾è¥¿äº",
        "place": "city",
        "population": "169003",
        "population:date": "2022",
        "ref:ine": "30030000100",
        "source": "Instituto GeogrÃ¡fico Nacional",
        "source:date": "2011-06",
        "source:ele": "MDT5",
        "source:name": "NomenclÃ¡tor GeogrÃ¡fico de Municipios y Entidades de PoblaciÃ³n",
        "wikidata": "Q31918779"
      }
    },
    {
      "type": "node",
      "id": 266776249,
      "lat": 41.6521342,
      "lon": -0.8809428,
      "tags": {
        "alt_name:el": "Î˜Î±ÏÎ±Î³ÏŒÎ¸Î±",
        "capital": "4",
        "ele": "208",
        "name": "Zaragoza",
        "name:an": "Zaragoza",
        "name:ar": "Ø³Ø±Ù‚Ø³Ø·Ø©",
        "name:be": "Ğ¡Ğ°Ñ€Ğ°Ğ³Ğ¾ÑĞ°",
        "name:ca": "Saragossa",
        "name:ckb": "Ø³Û•Ø±Û•Ú¯Û†Ø³Ø§",
        "name:de": "Saragossa",
        "name:el": "Î£Î±ÏÎ±Î³ÏŒÏƒÎ±",
        "name:eo": "Zaragozo",
        "name:es": "Zaragoza",
        "name:ext": "Ã‡aragoÃ§a",
        "name:fa": "Ø³Ø§Ø±Ø§Ú¯ÙˆØ³Ø§",
        "name:fr": "Saragosse",
        "name:fy": "Saragossa",
        "name:gl": "Zaragoza",
        "name:he": "×¡×¨×’×•×¡×”",
        "name:hy": "ÕÕ¡Ö€Õ¡Õ£Õ¸Õ½Õ¡",
        "name:it": "Saragozza",
        "name:ja": "ã‚µãƒ©ã‚´ã‚µ",
        "name:ka": "áƒ¡áƒáƒ áƒáƒ’áƒáƒ¡áƒ",
        "name:kk": "Ğ¡Ğ°Ñ€Ğ°Ğ³Ğ¾ÑĞ°",
        "name:ko": "ì‚¬ë¼ê³ ì‚¬",
        "name:la": "Caesaraugusta",
        "name:lb": "Saragossa",
        "name:lmo": "Saragoza",
        "name:lt": "Saragosa",
        "name:lv": "Saragosa",
        "name:mk": "Ğ¡Ğ°Ñ€Ğ°Ğ³Ğ¾ÑĞ°",
        "name:mr": "à¤¸à¤¾à¤°à¤¾à¤—à¥‹à¤¸à¤¾",
        "name:mt": "Å»aragoÅ¼a",
        "name:oc": "Saragossa",
        "name:pl": "Saragossa",
        "name:pms": "Saragozza",
        "name:pt": "SaragoÃ§a",
        "name:pt-BR": "Zaragoza",
        "name:ru": "Ğ¡Ğ°Ñ€Ğ°Ğ³Ğ¾ÑĞ°",
        "name:scn": "Saragozza",
        "name:sr": "Ğ¡Ğ°Ñ€Ğ°Ğ³Ğ¾ÑĞ°",
        "name:th": "à¸‹à¸²à¸£à¸²à¹‚à¸à¸‹à¸²",
        "name:tr": "Sarakusta",
        "name:ug": "Saragossa",
        "name:uk": "Ğ¡Ğ°Ñ€Ğ°Ğ³Ğ¾ÑĞ°",
        "name:vec": "Saragosa",
        "name:zh": "è¨æ‹‰æˆˆè¨",
        "name:zh-Hans": "è¨æ‹‰æˆˆè¨",
        "name:zh-Hant": "æœ­æ‹‰å“¥æ²™",
        "place": "city",
        "population": "641743",
        "population:date": "2022",
        "ref:ine": "50297001701",
        "source": "Instituto GeogrÃ¡fico Nacional",
        "source:date": "2011-06",
        "source:ele": "MDT5",
        "source:name": "NomenclÃ¡tor GeogrÃ¡fico de Municipios y Entidades de PoblaciÃ³n",
        "url": "http://www.zaragoza.es",
        "wikidata": "Q10305",
        "wikipedia": "es:Zaragoza"
      }
    },
    {
      "type": "node",
      "id": 267816660,
      "lat": 36.1311725,
      "lon": -5.4473991,
      "tags": {
        "capital": "7",
        "ele": "19",
        "name": "Algeciras",
        "name:ar": "Ø§Ù„Ø¬Ø²ÙŠØ±Ø© Ø§Ù„Ø®Ø¶Ø±Ø§Ø¡",
        "name:azb": "Ø¢Ù„Ù‚Ø³ÛŒØ±Ø§Ø³",
        "name:ca": "Algesires",
        "name:el": "Î‘Î»Ï‡ÎµÎ¸Î¯ÏÎ±Ï‚",
        "name:fr": "AlgÃ©siras",
        "name:hy": "Ô±Õ¬Õ­Õ¥Õ½Õ«Ö€Õ¡Õ½",
        "name:ml": "à´…àµ½à´œàµ†à´¸à´¿à´±à´¾à´¸àµ",
        "name:ru": "ĞĞ»ÑŒÑ…ĞµÑĞ¸Ñ€Ğ°Ñ",
        "name:sr": "ĞĞ»Ñ…ĞµÑĞ¸Ñ€Ğ°Ñ",
        "name:ur": "Ø§Ù„Ø¬Ø²ÛŒØ±Û Ø§Ù„Ø®Ø¶Ø±Ø§",
        "name:zh-Hans": "é˜¿å°”èµ«è¥¿æ‹‰æ–¯",
        "name:zh-Hant": "é˜¿çˆ¾èµ«è¥¿æ‹‰æ–¯",
        "place": "city",
        "population": "121182",
        "population:date": "2022",
        "ref:ine": "11004000101",
        "source": "survey;Instituto GeogrÃ¡fico Nacional",
        "source:date": "2011-06",
        "source:ele": "MDT5",
        "source:name": "NomenclÃ¡tor GeogrÃ¡fico de Municipios y Entidades de PoblaciÃ³n",
        "wikidata": "Q484552",
        "wikipedia": "es:Algeciras"
      }
    },
    {
      "type": "node",
      "id": 288139569,
      "lat": 41.5629623,
      "lon": 2.0100492,
      "tags": {
        "capital": "7",
        "ele": "281",
        "name": "Terrassa",
        "name:ar": "ØªØ§Ø±Ø§Ø³Ø§",
        "name:ca": "Terrassa",
        "name:el": "Î¤ÎµÏÎ¬ÏƒÎ±",
        "name:es": "Tarrasa",
        "name:lt": "Terasa",
        "name:ru": "Ğ¢ĞµÑ€Ñ€Ğ°ÑÑĞ°",
        "name:sr": "Ğ¢Ğ°Ñ€Ğ°ÑĞ°",
        "note": "The traditional name in Spanish is Tarrasa. The official name for the whole Spain is Terrassa.",
        "official_name:es": "Terrassa",
        "old_name:es": "Tarrasa",
        "place": "city",
        "population": "217814",
        "population:date": "2022",
        "ref:ine": "08279000405",
        "source": "Instituto GeogrÃ¡fico Nacional",
        "source:date": "2011-06",
        "source:ele": "MDT5",
        "source:name": "NomenclÃ¡tor GeogrÃ¡fico de Municipios y Entidades de PoblaciÃ³n",
        "website": "https://www.terrassa.cat/",
        "wikidata": "Q13939",
        "wikipedia": "ca:Terrassa"
      }
    },
    {
      "type": "node",
      "id": 289031151,
      "lat": 35.2919028,
      "lon": -2.9407146,
      "tags": {
        "addr:postcode": "52001",
        "capital": "4",
        "ele": "0",
        "name": "Melilla",
        "name:ar": "Ù…Ù„ÙŠÙ„ÙŠØ©",
        "name:azb": "Ù…Ù„ÛŒÙ„ÛŒÙ‡",
        "name:ber": "âµœâ´°âµâµâµ‰âµâµœ",
        "name:de": "Melilla",
        "name:fa": "Ù…Ù„ÛŒÙ„Ù‡",
        "name:fr": "Melilla",
        "name:ja": "ãƒ¡ãƒªãƒªãƒ£",
        "name:lt": "Melilja",
        "name:ml": "à´®àµ†à´²à´¿à´²àµà´²",
        "name:pa": "à¨®à©‡à¨²à¨¿à¨²à¨¾",
        "name:ru": "ĞœĞµĞ»Ğ¸Ğ»ÑŒÑ",
        "name:sr": "ĞœĞµĞ»Ğ¸Ñ™Ğ°",
        "name:ur": "Ù…Ù„ÛŒÙ„Û",
        "name:zgh": "âµœâ´°âµâµâµ‰âµâµœ",
        "name:zh": "æ¢…åˆ©åˆ©äºš",
        "place": "city",
        "population": "85170",
        "population:date": "2022",
        "ref:ine": "52001000301",
        "source": "Instituto GeogrÃ¡fico Nacional",
        "source:date": "2011-06",
        "source:ele": "MDT5",
        "source:name": "NomenclÃ¡tor GeogrÃ¡fico de Municipios y Entidades de PoblaciÃ³n",
        "wikidata": "Q5831",
        "wikipedia": "es:Melilla"
      }
    },
    {
      "type": "node",
      "id": 289643197,
      "lat": 39.5695818,
      "lon": 2.6500745,
      "tags": {
        "alt_name": "Palma de Mallorca",
        "alt_name:ar": "Ù…Ø¯ÙŠÙ†Ø© Ù…ÙÙŠÙÙˆØ±ÙÙ‚ÙØ©",
        "alt_name:be": "ĞŸĞ°Ğ»ÑŒĞ¼Ğ°-Ğ´Ñ-ĞœĞ°Ğ»ÑŒÑ‘Ñ€ĞºĞ°",
        "alt_name:bg": "ĞŸĞ°Ğ»Ğ¼Ğ° Ğ´Ğµ ĞœĞ°Ğ¹Ğ¾Ñ€ĞºĞ°",
        "alt_name:el": "Î Î¬Î»Î¼Î± Î½Ï„Îµ ÎœÎ±Î³Î¹ÏŒÏÎºÎ±",
        "alt_name:eu": "Palma Mallorcakoa",
        "alt_name:fa": "Ù¾Ø§Ù„Ù…Ø§ Ø¯ Ù…Ø§ÛŒÙˆØ±Ú©Ø§",
        "alt_name:fr": "Palma de Majorque",
        "alt_name:he": "×¤×œ××” ×“×” ××™×•×¨×§×”",
        "alt_name:it": "Palma di Maiorca",
        "alt_name:ja": "ãƒ‘ãƒ«ãƒãƒ»ãƒ‡ãƒ»ãƒãƒªãƒ§ãƒ«ã‚«",
        "alt_name:ko": "íŒ”ë§ˆë°ë§ˆìš”ë¥´ì¹´",
        "alt_name:lt": "Maljorkos Palma",
        "alt_name:lv": "Palma de MaÄ¼orka",
        "alt_name:mr": "à¤ªà¤¾à¤²à¥à¤®à¤¾ à¤¦à¥‡ à¤®à¤¾à¤¯à¥‹à¤°à¥à¤•à¤¾",
        "alt_name:pt": "Palma de Maiorca",
        "alt_name:ru": "ĞŸĞ°Ğ»ÑŒĞ¼Ğ°-Ğ´Ğµ-ĞœĞ°Ğ»ÑŒĞ¾Ñ€ĞºĞ°",
        "alt_name:sr": "ĞŸĞ°Ğ»Ğ¼Ğ° Ğ´Ğµ ĞœĞ°Ñ˜Ğ¾Ñ€ĞºĞ°",
        "capital": "4",
        "ele": "24",
        "int_name": "Palma de Mallorca",
        "name": "Palma",
        "name:ar": "Ù…ÙŠÙˆØ±Ù‚Ø©",
        "name:be": "ĞŸĞ°Ğ»ÑŒĞ¼Ğ°",
        "name:bg": "ĞŸĞ°Ğ»Ğ¼Ğ°",
        "name:ca": "Palma",
        "name:el": "Î Î¬Î»Î¼Î±",
        "name:fa": "Ù¾Ø§Ù„Ù…Ø§",
        "name:he": "×¤×œ××”",
        "name:ja": "ãƒ‘ãƒ«ãƒ",
        "name:ka": "áƒáƒáƒšáƒ›áƒ",
        "name:ko": "íŒ”ë§ˆë°",
        "name:lt": "Maljorkos Palma",
        "name:mr": "à¤ªà¤¾à¤²à¥à¤®à¤¾",
        "name:pt": "Palma",
        "name:ru": "ĞŸĞ°Ğ»ÑŒĞ¼Ğ°",
        "name:sr": "ĞŸĞ°Ğ»Ğ¼Ğ°",
        "name:th": "à¸›à¸±à¸¥à¸¡à¸²",
        "name:uk": "ĞŸĞ°Ğ»ÑŒĞ¼Ğ°",
        "name:zh": "å¸•çˆ¾é¦¬",
        "name:zh-Hans": "å¸•å°”é©¬",
        "name:zh-Hant": "å¸•çˆ¾é¦¬",
        "note": "Although people say 'Palma de Mallorca' for not confusing to 'Las Palmas de Gran Canari' the correct name is 'Palma'",
        "note_2": "official_name is Palma, because the change of its name in 2011 it's not legally as state wikipedia (ca:Palma) (only in catalan) because no sufficient votes are done",
        "official_name": "Palma",
        "official_name:ca": "Palma",
        "place": "city",
        "population": "308941",
        "population:date": "2022",
        "ref:ine": "07040001201",
        "source": "BOE REAL DECRETO 1683/2007, de 14 de diciembre;Instituto GeogrÃ¡fico Nacional",
        "source:date": "2011-06",
        "source:ele": "MDT5",
        "source:name": "NomenclÃ¡tor GeogrÃ¡fico de Municipios y Entidades de PoblaciÃ³n",
        "wikidata": "Q8826",
        "wikipedia": "ca:Palma"
      }
    },
    {
      "type": "node",
      "id": 291768008,
      "lat": 35.888361,
      "lon": -5.304138,
      "tags": {
        "capital": "4",
        "ele": "20",
        "name": "Ceuta",
        "name:ar": "Ø³Ø¨ØªØ©",
        "name:ber": "âµ™â´±âµœâ´°",
        "name:el": "Î˜Î­Î¿Ï…Ï„Î±",
        "name:fr": "Ceuta",
        "name:hu": "Ceuta",
        "name:lt": "Seuta",
        "name:ml": "à´¸àµà´¯àµ‚à´Ÿàµà´Ÿ",
        "name:ru": "Ğ¡ĞµÑƒÑ‚Ğ°",
        "name:sk": "Ceuta",
        "name:tr": "Sebte",
        "name:zgh": "âµ™â´±âµœâ´°",
        "name:zh": "ä¼‘è¾¾",
        "place": "city",
        "population": "68686",
        "population:date": "2022",
        "ref:ine": "51001000201",
        "source": "Instituto GeogrÃ¡fico Nacional",
        "source:date": "2011-06",
        "source:ele": "MDT5",
        "source:name": "NomenclÃ¡tor GeogrÃ¡fico de Municipios y Entidades de PoblaciÃ³n",
        "wikidata": "Q5823",
        "wikipedia": "es:Ceuta"
      }
    },
    {
      "type": "node",
      "id": 299660257,
      "lat": 38.0585479,
      "lon": -1.2042086,
      "tags": {
        "capital": "7",
        "ele": "92",
        "name": "Molina de Segura",
        "place": "city",
        "population": "46322",
        "population:date": "2022",
        "ref:ine": "30027001101",
        "source": "Instituto GeogrÃ¡fico Nacional",
        "source:date": "2011-06",
        "source:ele": "MDT5",
        "source:name": "NomenclÃ¡tor GeogrÃ¡fico de Municipios y Entidades de PoblaciÃ³n",
        "wikidata": "Q24012542"
      }
    },
    {
      "type": "node",
      "id": 301424404,
      "lat": 43.29548,
      "lon": -2.9900933,
      "tags": {
        "capital": "7",
        "ele": "35",
        "name": "Barakaldo",
        "name:es": "Baracaldo",
        "name:eu": "Barakaldo",
        "name:ru": "Ğ‘Ğ°Ñ€Ğ°ĞºĞ°Ğ»ÑŒĞ´Ğ¾",
        "official_name": "Barakaldo",
        "place": "city",
        "population": "99814",
        "population:date": "2022",
        "postal_code": "48901",
        "ref:ine": "48013000400",
        "source": "Instituto GeogrÃ¡fico Nacional",
        "source:date": "2011-06",
        "source:ele": "MDT5",
        "source:name": "NomenclÃ¡tor GeogrÃ¡fico de Municipios y Entidades de PoblaciÃ³n",
        "wikidata": "Q23992541",
        "wikipedia": "eu:Barakaldo",
        "wikipedia:es": "Baracaldo",
        "wikipedia:eu": "Barakaldo"
      }
    },
    {
      "type": "node",
      "id": 304871160,
      "lat": 37.7697645,
      "lon": -1.5025376,
      "tags": {
        "capital": "8",
        "ele": "255",
        "name": "Totana",
        "place": "city",
        "population": "27426",
        "population:date": "2022",
        "ref:ine": "30039000401",
        "source": "Instituto GeogrÃ¡fico Nacional 2014",
        "source:date": "2011-06",
        "source:ele": "MDT5",
        "source:name": "NomenclÃ¡tor GeogrÃ¡fico de Municipios y Entidades de PoblaciÃ³n",
        "wikidata": "Q338174",
        "wikipedia": "en:Totana"
      }
    },
    {
      "type": "node",
      "id": 304873309,
      "lat": 37.6712139,
      "lon": -1.6990431,
      "tags": {
        "capital": "7",
        "ele": "342",
        "name": "Lorca",
        "name:sr": "Ğ›Ğ¾Ñ€ĞºĞ°",
        "place": "city",
        "population": "63154",
        "population:date": "2022",
        "ref:ine": "30024000400",
        "source": "Instituto GeogrÃ¡fico Nacional",
        "source:date": "2011-06",
        "source:ele": "MDT5",
        "source:name": "NomenclÃ¡tor GeogrÃ¡fico de Municipios y Entidades de PoblaciÃ³n",
        "wikidata": "Q47571",
        "wikipedia": "es:Lorca"
      }
    },
    {
      "type": "node",
      "id": 305072315,
      "lat": 40.282476,
      "lon": -3.7923422,
      "tags": {
        "capital": "8",
        "ele": "662",
        "name": "Fuenlabrada",
        "name:en": "Fuenlabrada",
        "name:hu": "Fuenlabrada",
        "name:ja": "ãƒ•ã‚¨ãƒ³ãƒ©ãƒ–ãƒ©ãƒ€",
        "name:ru": "Ğ¤ÑƒÑĞ½Ğ»Ğ°Ğ±Ñ€Ğ°Ğ´Ğ°",
        "name:sr": "Ğ¤ÑƒĞµĞ½Ğ»Ğ°Ğ±Ñ€Ğ°Ğ´Ğ°",
        "name:uk": "Ğ¤ÑƒĞµĞ½Ğ»Ğ°Ğ±Ñ€Ğ°Ğ´Ğ°",
        "name:zh": "ä¸°æ‹‰å¤«æ‹‰è¾¾",
        "place": "city",
        "population": "162185",
        "population:date": "2022",
        "population:source": "Instituto Nacional de EstadÃ­stica",
        "ref:ine": "28058000102",
        "source": "Instituto GeogrÃ¡fico Nacional",
        "source:date": "2011-06",
        "source:ele": "MDT5",
        "source:name": "NomenclÃ¡tor GeogrÃ¡fico de Municipios y Entidades de PoblaciÃ³n",
        "wikidata": "Q54902",
        "wikipedia": "es:Fuenlabrada"
      }
    },
    {
      "type": "node",
      "id": 305596691,
      "lat": 38.4735408,
      "lon": -1.3285417,
      "tags": {
        "capital": "8",
        "ele": "511",
        "name": "Jumilla",
        "place": "city",
        "population": "25252",
        "population:date": "2022",
        "ref:ine": "30022000801",
        "source": "Instituto GeogrÃ¡fico Nacional",
        "source:date": "2011-06",
        "source:ele": "MDT5",
        "source:name": "NomenclÃ¡tor GeogrÃ¡fico de Municipios y Entidades de PoblaciÃ³n",
        "wikidata": "Q917173",
        "wikipedia": "en:Jumilla"
      }
    },
    {
      "type": "node",
      "id": 305597586,
      "lat": 38.6135956,
      "lon": -1.1157882,
      "tags": {
        "capital": "7",
        "ele": "606",
        "name": "Yecla",
        "name:ca": "Iecla",
        "place": "city",
        "population": "32074",
        "population:date": "2022",
        "ref:ine": "30043000401",
        "source": "Instituto GeogrÃ¡fico Nacional",
        "source:date": "2011-06",
        "source:ele": "MDT5",
        "source:name": "NomenclÃ¡tor GeogrÃ¡fico de Municipios y Entidades de PoblaciÃ³n",
        "wikidata": "Q931116",
        "wikipedia": "es:Yecla"
      }
    },
    {
      "type": "node",
      "id": 306524300,
      "lat": 40.3492998,
      "lon": -3.8284295,
      "tags": {
        "capital": "8",
        "ele": "711",
        "name": "AlcorcÃ³n",
        "name:en": "AlcorcÃ³n",
        "name:hu": "AlcorcÃ³n",
        "name:ja": "ã‚¢ãƒ«ã‚³ãƒ«ã‚³ãƒ³",
        "name:lt": "Alkorkonas",
        "name:ru": "ĞĞ»ÑŒĞºĞ¾Ñ€ĞºĞ¾Ğ½",
        "name:sr": "ĞĞ»ĞºĞ¾Ñ€ĞºĞ¾Ğ½",
        "name:uk": "ĞĞ»ÑŒĞºĞ¾Ñ€ĞºĞ¾Ğ½",
        "name:zh": "é˜¿å°”ç§‘å°”å­”",
        "place": "city",
        "population": "166158",
        "population:date": "2022",
        "population:source": "Instituto Nacional de EstadÃ­stica",
        "ref:ine": "28007000101",
        "source": "Instituto GeogrÃ¡fico Nacional",
        "source:date": "2021-08",
        "source:ele": "MDT5",
        "source:name": "NomenclÃ¡tor GeogrÃ¡fico de Municipios y Entidades de PoblaciÃ³n",
        "website": "http://www.ayto-alcorcon.es/",
        "wikidata": "Q10372",
        "wikipedia": "es:AlcorcÃ³n"
      }
    },
    {
      "type": "node",
      "id": 306524430,
      "lat": 40.3238525,
      "lon": -3.8649214,
      "tags": {
        "alt_name:ar": "Ù…ÙˆØ³ØªÙˆÙ„ÙŠØ³",
        "capital": "8",
        "ele": "660",
        "name": "MÃ³stoles",
        "name:ar": "Ù…ÙˆØ³ØªÙˆÙ„Ø³",
        "name:el": "ÎœÏŒÏƒÏ„Î¿Î»ÎµÏ‚",
        "name:en": "MÃ³stoles",
        "name:fa": "Ù…ÙˆØ³ØªÙˆÙ„Ø³",
        "name:hu": "MÃ³stoles",
        "name:ja": "ãƒ¢ã‚¹ãƒˆãƒ¬ã‚¹",
        "name:ru": "ĞœĞ¾ÑÑ‚Ğ¾Ğ»ĞµÑ",
        "name:sr": "ĞœĞ¾ÑÑ‚Ğ¾Ğ»ĞµÑ",
        "name:ur": "Ù…ÙˆØ³ØªÙˆÙ„Ø³",
        "name:zh": "è«æ–¯æ‰˜è±æ–¯",
        "name:zh-Hans": "è«æ–¯æ‰˜è±æ–¯",
        "place": "city",
        "population": "195556",
        "population:date": "2022",
        "population:source": "Instituto Nacional de EstadÃ­stica",
        "ref:ine": "28092000101",
        "source": "Instituto GeogrÃ¡fico Nacional",
        "source:date": "2011-06",
        "source:ele": "MDT5",
        "source:name": "NomenclÃ¡tor GeogrÃ¡fico de Municipios y Entidades de PoblaciÃ³n",
        "wikidata": "Q187826",
        "wikipedia": "es:MÃ³stoles"
      }
    },
    {
      "type": "node",
      "id": 306524644,
      "lat": 40.3281942,
      "lon": -3.76527,
      "tags": {
        "capital": "8",
        "ele": "667",
        "name": "LeganÃ©s",
        "name:ca": "LeganÃ¨s",
        "name:en": "LeganÃ©s",
        "name:hu": "LeganÃ©s",
        "name:ja": "ãƒ¬ã‚¬ãƒã‚¹",
        "name:ru": "Ğ›ĞµĞ³Ğ°Ğ½ĞµÑ",
        "name:sr": "Ğ›ĞµĞ³Ğ°Ğ½ĞµÑ",
        "name:uk": "Ğ›ĞµĞ³Ğ°Ğ½ĞµÑ",
        "place": "city",
        "population": "173403",
        "population:date": "2022",
        "population:source": "Instituto Nacional de EstadÃ­stica",
        "ref:ine": "28074000201",
        "source": "Instituto GeogrÃ¡fico Nacional",
        "source:date": "2011-06",
        "source:ele": "MDT5",
        "source:name": "NomenclÃ¡tor GeogrÃ¡fico de Municipios y Entidades de PoblaciÃ³n",
        "wikidata": "Q77433",
        "wikipedia": "es:LeganÃ©s"
      }
    },
    {
      "type": "node",
      "id": 306620202,
      "lat": 40.2373952,
      "lon": -3.7718902,
      "tags": {
        "capital": "8",
        "ele": "645",
        "name": "Parla",
        "name:ar": "Ø¨Ø§Ø±Ù„Ø§",
        "name:el": "Î Î¬ÏÎ»Î±",
        "name:fa": "Ù¾Ø§Ø±Ù„Ø§",
        "name:hu": "Parla",
        "name:ja": "ãƒ‘ãƒ«ãƒ©",
        "name:ru": "ĞŸĞ°Ñ€Ğ»Ğ°",
        "name:sr": "ĞŸĞ°Ñ€Ğ»Ğ°",
        "name:uk": "ĞŸĞ°Ñ€Ğ»Ğ°",
        "name:ur": "Ù¾Ø±Ù„Ø§",
        "name:zh": "å¸•å°”æ‹‰",
        "place": "city",
        "population": "130556",
        "population:date": "2022",
        "population:source": "Instituto Nacional de EstadÃ­stica",
        "postal_code": "28980",
        "ref:ine": "28106000102",
        "source": "Instituto GeogrÃ¡fico Nacional",
        "source:date": "2011-06",
        "source:ele": "MDT5",
        "source:name": "NomenclÃ¡tor GeogrÃ¡fico de Municipios y Entidades de PoblaciÃ³n",
        "wikidata": "Q824651",
        "wikipedia": "es:Parla"
      }
    },
    {
      "type": "node",
      "id": 346353020,
      "lat": 41.4515626,
      "lon": 2.2083371,
      "tags": {
        "capital": "8",
        "ele": "56",
        "name": "Santa Coloma de Gramenet",
        "name:ca": "Santa Coloma de Gramenet",
        "name:ru": "Ğ¡Ğ°Ğ½Ñ‚Ğ°-ĞšĞ¾Ğ»Ğ¾Ğ¼Ğ°-Ğ´Ğµ-Ğ“Ñ€Ğ°Ğ¼ĞµĞ½ĞµÑ‚",
        "place": "city",
        "population": "117981",
        "population:date": "2022",
        "ref:ine": "08245000101",
        "source": "Instituto GeogrÃ¡fico Nacional",
        "source:date": "2011-06",
        "source:ele": "MDT5",
        "source:name": "NomenclÃ¡tor GeogrÃ¡fico de Municipios y Entidades de PoblaciÃ³n",
        "wikidata": "Q15473",
        "wikipedia": "ca:Santa Coloma de Gramenet"
      }
    },
    {
      "type": "node",
      "id": 493395619,
      "lat": 43.3618625,
      "lon": -5.8483581,
      "tags": {
        "alt_name": "UviÃ©u",
        "capital": "4",
        "ele": "231",
        "name": "Oviedo / UviÃ©u",
        "name:ar": "Ø£ÙˆÙÙŠÙŠØ¯Ùˆ",
        "name:ast": "UviÃ©u",
        "name:be": "ĞÑĞµĞ´Ğ°",
        "name:br": "UviÃ©u",
        "name:ca": "Oviedo",
        "name:de": "Oviedo",
        "name:el": "ÎŸÎ²Î¹Î­Î´Î¿",
        "name:es": "Oviedo",
        "name:eu": "Oviedo",
        "name:fr": "OviÃ¨de",
        "name:ru": "ĞĞ²ÑŒĞµĞ´Ğ¾",
        "note": "Decreto 14/2019, de 13 de marzo, por el que se determinan los topÃ³nimos oficiales del Concejo de Oviedo.",
        "official_name": "Oviedo/UviÃ©u",
        "place": "city",
        "population": "215167",
        "population:date": "2022",
        "ref:ine": "33044190101",
        "reg_name": "UviÃ©u",
        "wikidata": "Q14317",
        "wikipedia": "es:Oviedo"
      }
    },
    {
      "type": "node",
      "id": 529391484,
      "lat": 43.5449422,
      "lon": -5.66275,
      "tags": {
        "alt_name": "XixÃ³n",
        "capital": "8",
        "ele": "7",
        "int_name": "GijÃ³n/XixÃ³n",
        "name": "GijÃ³n / XixÃ³n",
        "name:ar": "Ø®ÙŠØ®ÙˆÙ†",
        "name:ast": "XixÃ³n",
        "name:br": "XixÃ³n",
        "name:ca": "GijÃ³n",
        "name:el": "Î§Î¹Ï‡ÏŒÎ½",
        "name:en": "GijÃ³n",
        "name:es": "GijÃ³n",
        "name:et": "GijÃ³n",
        "name:eu": "GijÃ³n",
        "name:fi": "GijÃ³n",
        "name:fr": "Gijon",
        "name:gl": "XixÃ³n",
        "name:ru": "Ğ¥Ğ¸Ñ…Ğ¾Ğ½",
        "name:sr": "Ğ¥Ğ¸Ñ…Ğ¾Ğ½",
        "name:zh-Hans": "å¸Œæ´ª",
        "name:zh-Hant": "å¸Œæ´ª",
        "official_name": "GijÃ³n/XixÃ³n",
        "old_name": "GijÃ³n",
        "place": "city",
        "population": "252991",
        "population:date": "2022",
        "ref:ine": "33024090101",
        "wikidata": "Q12273",
        "wikipedia": "es:GijÃ³n"
      }
    },
    {
      "type": "node",
      "id": 544485787,
      "lat": 42.0501375,
      "lon": -8.6466411,
      "tags": {
        "capital": "8",
        "ele": "36",
        "name": "Tui",
        "name:en": "Tui",
        "name:es": "Tuy",
        "name:gl": "Tui",
        "name:la": "Tude",
        "name:pt": "Tui",
        "name:ru": "Ğ¢ÑƒĞ¹",
        "place": "city",
        "population": "6332",
        "population:date": "2022",
        "ref:ine": "36055120101",
        "source": "Instituto GeogrÃ¡fico Nacional",
        "source:date": "2011-06",
        "source:ele": "MDT5",
        "source:name": "NomenclÃ¡tor GeogrÃ¡fico de Municipios y Entidades de PoblaciÃ³n",
        "wikidata": "Q824122",
        "wikipedia": "gl:Tui"
      }
    },
    {
      "type": "node",
      "id": 626639326,
      "lat": 40.656478,
      "lon": -4.7002172,
      "tags": {
        "alt_name:ar": "Ø¢Ø¨Ù„Ù‡;Ø§ÙÙŠÙ„Ø§",
        "capital": "6",
        "ele": "1131",
        "name": "Ãvila",
        "name:am": "áŠ á‰¢áˆ‹",
        "name:ar": "Ø¢Ø¨Ù„Ø©",
        "name:be": "ĞĞ²Ñ–Ğ»Ğ°",
        "name:bg": "ĞĞ²Ğ¸Ğ»Ğ°",
        "name:bn": "à¦à¦­à¦¿à¦²à¦¾",
        "name:ca": "Ã€vila",
        "name:el": "Î†Î²Î¹Î»Î±",
        "name:es": "Ãvila",
        "name:fa": "Ø¢Ø¨ÛŒÙ„Ø§",
        "name:gu": "àªàªµà«€àª²àª¾",
        "name:he": "××•×•×™×œ×”",
        "name:hi": "à¤†à¤µà¥€à¤²à¤¾",
        "name:hy": "Ô±Õ¾Õ«Õ¬Õ¡",
        "name:ja": "ã‚¢ãƒ“ãƒ©",
        "name:ka": "áƒáƒ•áƒ˜áƒšáƒ",
        "name:kn": "à²†à²µà²¿à²²à²¾",
        "name:ko": "ì•„ë¹Œë¼",
        "name:lt": "Avila",
        "name:mr": "à¤à¤µà¥à¤¹à¤¿à¤²à¤¾",
        "name:pa": "à¨†à¨µà©€à¨²à¨¾",
        "name:ru": "ĞĞ²Ğ¸Ğ»Ğ°",
        "name:si": "à¶†à·€à·’à¶½à·",
        "name:sr": "ĞĞ²Ğ¸Ğ»Ğ°",
        "name:ta": "à®…à®µà®¿à®²à®¾",
        "name:te": "à°…à°µà°¿à°²à°¾",
        "name:th": "à¸­à¸²à¸šà¸´à¸¥à¸²",
        "name:uk": "ĞĞ²Ñ–Ğ»Ğ°",
        "name:ur": "Ø¢Ø¨ÛŒÙ„Ø§",
        "name:zh": "é˜¿ç»´æ‹‰",
        "place": "city",
        "population": "57081",
        "population:date": "2022",
        "ref:ine": "05019000301",
        "source": "Instituto GeogrÃ¡fico Nacional",
        "source:date": "2011-06",
        "source:ele": "MDT5",
        "source:name": "NomenclÃ¡tor GeogrÃ¡fico de Municipios y Entidades de PoblaciÃ³n",
        "wikidata": "Q15688",
        "wikipedia": "es:Ãvila"
      }
    },
    {
      "type": "node",
      "id": 688986898,
      "lat": 41.5056574,
      "lon": -5.7448039,
      "tags": {
        "capital": "6",
        "ele": "649",
        "name": "Zamora",
        "name:am": "áˆ³áˆáˆ«",
        "name:ar": "Ø³Ù…ÙˆØ±Ø©",
        "name:be": "Ğ¡Ğ°Ğ¼Ğ¾Ñ€Ğ°",
        "name:bn": "à¦¥à¦¾à¦®à§‹à¦°à¦¾",
        "name:el": "Î˜Î±Î¼ÏŒÏÎ±",
        "name:es": "Zamora",
        "name:fa": "Ø³Ø§Ù…Ø±Ø§",
        "name:he": "×¡××•×¨×”",
        "name:hy": "ÕÕ¡Õ´Õ¸Ö€Õ¡",
        "name:ja": "ã‚µãƒ¢ãƒ©",
        "name:ka": "áƒ¡áƒáƒ›áƒáƒ áƒ",
        "name:ko": "ì‚¬ëª¨ë¼",
        "name:la": "Ocellum Duri",
        "name:ru": "Ğ¡Ğ°Ğ¼Ğ¾Ñ€Ğ°",
        "name:sr": "Ğ—Ğ°Ğ¼Ğ¾Ñ€Ğ°",
        "name:uk": "Ğ¡Ğ°Ğ¼Ğ¾Ñ€Ğ°",
        "name:zh": "è¨è«æ‹‰",
        "place": "city",
        "population": "59035",
        "population:date": "2022",
        "ref:ine": "49275000201",
        "source": "Instituto GeogrÃ¡fico Nacional",
        "source:date": "2011-06",
        "source:ele": "MDT5",
        "source:name": "NomenclÃ¡tor GeogrÃ¡fico de Municipios y Entidades de PoblaciÃ³n",
        "wikidata": "Q107658630"
      }
    },
    {
      "type": "node",
      "id": 764716504,
      "lat": 42.4318876,
      "lon": -8.6431592,
      "tags": {
        "alt_name": "Ponte Vedra",
        "alt_name:gl": "Ponte Vedra",
        "capital": "6",
        "ele": "16",
        "name": "Pontevedra",
        "name:ar": "Ø¨ÙˆÙ†ØªÙŠÙÙŠØ¯Ø±Ø§",
        "name:be": "ĞŸĞ°Ğ½Ñ‚ÑĞ²ĞµĞ´Ñ€Ğ°",
        "name:ca": "Pontevedra",
        "name:el": "Î Î¿Î½Ï„ÎµÎ²Î­Î´ÏÎ±",
        "name:es": "Pontevedra",
        "name:fa": "Ù¾Ù†ØªØ¨Ø¯Ø±Ø§",
        "name:gl": "Pontevedra",
        "name:ja": "ãƒãƒ³ãƒ†ãƒ™ãƒ‰ãƒ©",
        "name:pt": "Ponte Vedra",
        "name:ru": "ĞŸĞ¾Ğ½Ñ‚ĞµĞ²ĞµĞ´Ñ€Ğ°",
        "name:sr": "ĞŸĞ¾Ğ½Ñ‚ĞµĞ²ĞµĞ´Ñ€Ğ°",
        "name:zh": "è“¬ç‰¹éŸ‹å¾·æ‹‰",
        "official_name": "Pontevedra",
        "place": "city",
        "population": "63172",
        "population:date": "2022",
        "ref:ine": "36038000101",
        "source": "Instituto GeogrÃ¡fico Nacional",
        "source:date": "2011",
        "source:ele": "MDT5",
        "source:name": "NomenclÃ¡tor GeogrÃ¡fico de Municipios y Entidades de PoblaciÃ³n",
        "source:name:pt": "www.agal-gz.org/corporativo/media/docsCL/toponimia.pdf",
        "wikidata": "Q12411"
      }
    },
    {
      "type": "node",
      "id": 939880925,
      "lat": 41.3598601,
      "lon": 2.0997927,
      "tags": {
        "capital": "8",
        "ele": "11",
        "name": "l'Hospitalet de Llobregat",
        "name:ca": "l'Hospitalet de Llobregat",
        "name:el": "ÎŸÏƒÏ€Î¹Ï„Î±Î»Î­Ï„ Î½Ï„Îµ Î›Î¹Î¿Î²ÏÎµÎ³Î¬Ï„",
        "name:ru": "ĞÑĞ¿Ğ¸Ñ‚Ğ°Ğ»ĞµÑ‚-Ğ´Ğµ-Ğ›ÑŒĞ¾Ğ±Ñ€ĞµĞ³Ğ°Ñ‚",
        "name:sr": "Ğ›Ğ¾ÑĞ¿Ğ¸Ñ‚Ğ°Ğ»ĞµÑ‚ Ğ´Ğµ Ğ‰Ğ¾Ğ±Ñ€ĞµĞ³Ğ°Ñ‚",
        "old_name:es": "Hospitalet de Llobregat",
        "place": "city",
        "population": "265444",
        "population:date": "2022",
        "rank": "30",
        "ref:ine": "08101000101",
        "wikidata": "Q15470",
        "wikipedia": "ca:L'Hospitalet de Llobregat"
      }
    },
    {
      "type": "node",
      "id": 998649870,
      "lat": 42.8804219,
      "lon": -8.5458608,
      "tags": {
        "alt_name:ar": "Ø´Ù†Øª ÙŠØ§Ù‚ÙˆÙ‡;Ø´Ù†Øª ÙŠØ§Ù‚ÙˆØ¨;Ø´Ù†Øª ÙŠØ§Ù‚;Ø³Ù†ØªÙŠØ§ØºÙˆ Ø¯ÙŠ ÙƒÙˆÙ…Ø¨ÙˆØ³ØªÙŠÙ„Ø§;Ø³Ø§Ù†ØªÙŠØ§ØºÙˆ Ø¯ÙŠ ÙƒÙˆÙ…Ø¨ÙˆØ³ØªÙŠÙ„Ø§",
        "alt_name:hr": "Sveti Jakov na Svjetlosnom Polju",
        "capital": "4",
        "ele": "260",
        "heritage": "1",
        "heritage:operator": "whc",
        "int_name": "Santiago de Compostela",
        "name": "Santiago de Compostela",
        "name:ar": "Ø´Ù†Øª ÙŠØ§Ù‚Ø¨",
        "name:be": "Ğ¡Ğ°Ğ½Ñ‚'ÑĞ³Ğ°-Ğ´Ñ-ĞšĞ°Ğ¼Ğ¿Ğ°ÑÑ‚ÑĞ»Ğ°",
        "name:bg": "Ğ¡Ğ°Ğ½Ñ‚ÑĞ³Ğ¾ Ğ´Ğµ ĞšĞ¾Ğ¼Ğ¿Ğ¾ÑÑ‚ĞµĞ»Ğ°",
        "name:br": "Sant-Jakez a Gompostela",
        "name:ca": "Santiago de CompostelÂ·la",
        "name:el": "Î£Î±Î½Ï„Î¹Î¬Î³Î¿ Î½Ï„Îµ ÎšÎ¿Î¼Ï€Î¿ÏƒÏ„Î­Î»Î±",
        "name:es": "Santiago de Compostela",
        "name:eu": "Compostelako Donejakue",
        "name:fa": "Ø³Ø§Ù†ØªÛŒØ§Ú¯Ùˆ Ø¯ Ú©Ø§Ù…Ù¾ÙˆØ³ØªÙ„Ø§",
        "name:fr": "Saint-Jacques-de-Compostelle",
        "name:gl": "Santiago de Compostela",
        "name:he": "×¡× ×˜×™××’×• ×“×” ×§×•××¤×•×¡×˜×œ×”",
        "name:hr": "Santiago de Compostela",
        "name:it": "Santiago di Compostela",
        "name:ja": "ã‚µãƒ³ãƒ†ã‚£ã‚¢ã‚´ãƒ»ãƒ‡ãƒ»ã‚³ãƒ³ãƒã‚¹ãƒ†ãƒ¼ãƒ©",
        "name:la": "Compostella",
        "name:lt": "Santjago de Kompostela",
        "name:nl": "Santiago de Compostella",
        "name:oc": "CompostÃ¨la",
        "name:ru": "Ğ¡Ğ°Ğ½Ñ‚ÑŒÑĞ³Ğ¾-Ğ´Ğµ-ĞšĞ¾Ğ¼Ğ¿Ğ¾ÑÑ‚ĞµĞ»Ğ°",
        "name:sr": "Ğ¡Ğ°Ğ½Ñ‚Ğ¸Ñ˜Ğ°Ğ³Ğ¾ Ğ´Ğµ ĞšĞ¾Ğ¼Ğ¿Ğ¾ÑÑ‚ĞµĞ»Ğ°",
        "name:th": "à¸‹à¸²à¸™à¹€à¸•à¸µà¸¢à¹‚à¸à¹€à¸”à¸à¸­à¸¡à¹‚à¸›à¸ªà¹€à¸•à¸¥à¸²",
        "name:uk": "Ğ¡Ğ°Ğ½Ñ‚ÑŒÑÒ‘Ğ¾-Ğ´Ğµ-ĞšĞ¾Ğ¼Ğ¿Ğ¾ÑÑ‚ĞµĞ»Ğ°",
        "name:zh": "åœ£åœ°äºšå“¥ï¼å¾·å­”æ³¢æ–¯ç‰¹æ‹‰",
        "name:zh-Hans": "åœ£åœ°äºšå“¥ï¼å¾·å­”æ³¢æ–¯ç‰¹æ‹‰",
        "name:zh-Hant": "è–åœ°äºå“¥å¾·å­”æ³¢æ–¯ç‰¹æ‹‰",
        "old_name:ca": "Sant Jaume de GalÃ­cia",
        "place": "city",
        "population": "82080",
        "population:date": "2022",
        "ref:ine": "15078000101",
        "ref:whc": "347",
        "source": "Instituto GeogrÃ¡fico Nacional",
        "source:date": "2011-06",
        "source:ele": "MDT5",
        "source:name": "NomenclÃ¡tor GeogrÃ¡fico de Municipios y Entidades de PoblaciÃ³n",
        "source:name:br": "ofis publik ar brezhoneg",
        "whc:criteria": "(i)(ii)(vi)",
        "whc:inscription_date": "1985",
        "wikidata": "Q14314",
        "wikipedia": "es:Santiago de Compostela"
      }
    },
    {
      "type": "node",
      "id": 1036673662,
      "lat": 28.4857715,
      "lon": -16.3159422,
      "tags": {
        "capital": "8",
        "ele": "549",
        "heritage": "1;3",
        "heritage:operator": "whc;Gobierno de Canarias",
        "loc_name": "La Laguna",
        "name": "San CristÃ³bal de La Laguna",
        "name:ko": "ì‚°í¬ë¦¬ìŠ¤í† ë°œë°ë¼ë¼êµ¬ë‚˜",
        "name:lt": "San Kristobal de la LagÅ«na",
        "name:ru": "Ğ¡Ğ°Ğ½-ĞšÑ€Ğ¸ÑÑ‚Ğ¾Ğ±Ğ°Ğ»ÑŒ-Ğ´Ğµ-Ğ›Ğ°-Ğ›Ğ°Ğ³ÑƒĞ½Ğ°",
        "name:uk": "Ğ¡Ğ°Ğ½-ĞšÑ€Ñ–ÑÑ‚Ğ¾Ğ±Ğ°Ğ»ÑŒ-Ğ´Ğµ-Ğ»Ğ°-Ğ›Ğ°Ğ³ÑƒĞ½Ğ°",
        "name:zh": "æ‹‰å¤çº³çš„åœ£å…‹é‡Œæ–¯æ‰˜ç“¦å°”",
        "place": "city",
        "population": "31211",
        "population:date": "2022",
        "ref:ine": "38023001701",
        "source": "Instituto GeogrÃ¡fico Nacional",
        "source:date": "2011-06",
        "source:ele": "MDT5",
        "source:name": "NomenclÃ¡tor GeogrÃ¡fico de Municipios y Entidades de PoblaciÃ³n",
        "wikidata": "Q54898",
        "wikipedia": "es:San CristÃ³bal de La Laguna"
      }
    },
    {
      "type": "node",
      "id": 1081751552,
      "lat": 36.508976,
      "lon": -4.88562,
      "tags": {
        "alt_name:ar": "Ù…Ø§Ø±Ø¨ÙŠØ§",
        "capital": "7",
        "ele": "18",
        "name": "Marbella",
        "name:ar": "Ù…Ø±Ø¨Ù„Ø©",
        "name:el": "ÎœÎ±ÏÎ²Î­Î³Î¹Î±",
        "name:es": "Marbella",
        "name:lt": "Marbelja",
        "name:ru": "ĞœĞ°Ñ€Ğ±ĞµĞ»ÑŒÑ",
        "name:sr": "ĞœĞ°Ñ€Ğ±ĞµÑ™Ğ°",
        "place": "city",
        "population": "75678",
        "population:date": "2022",
        "postal_code": "29600-29604",
        "ref:ine": "29069000901",
        "source": "Instituto GeogrÃ¡fico Nacional",
        "source:date": "2011-06",
        "source:ele": "MDT5",
        "source:name": "NomenclÃ¡tor GeogrÃ¡fico de Municipios y Entidades de PoblaciÃ³n",
        "wikidata": "Q24012588"
      }
    },
    {
      "type": "node",
      "id": 1188813761,
      "lat": 37.9680342,
      "lon": -1.214954,
      "tags": {
        "capital": "8",
        "ele": "70",
        "name": "Alcantarilla",
        "place": "city",
        "population": "42007",
        "population:date": "2022",
        "ref:ine": "30005000101",
        "source": "Instituto GeogrÃ¡fico Nacional",
        "source:date": "2011-06",
        "source:ele": "MDT5",
        "source:name": "NomenclÃ¡tor GeogrÃ¡fico de Municipios y Entidades de PoblaciÃ³n",
        "wikidata": "Q954542",
        "wikipedia": "en:Alcantarilla"
      }
    },
    {
      "type": "node",
      "id": 1235110932,
      "lat": 43.3709703,
      "lon": -8.3959425,
      "tags": {
        "alt_name:es": "A CoruÃ±a",
        "alt_name:gl": "A Corunha",
        "capital": "6",
        "ele": "21",
        "maritime": "yes",
        "name": "A CoruÃ±a",
        "name:an": "A CoruÃ±a",
        "name:ar": "Ù„Ø§ ÙƒÙˆØ±ÙˆÙ†ÙŠØ§",
        "name:ast": "A CoruÃ±a",
        "name:be": "A-ĞšĞ°Ñ€ÑƒĞ½ÑŒÑ",
        "name:bg": "A ĞšĞ¾Ñ€ÑƒĞ½Ñ",
        "name:br": "A CoruÃ±a",
        "name:ca": "A Corunya",
        "name:ceb": "A CoruÃ±a",
        "name:cs": "A CoruÃ±a",
        "name:cy": "A CoruÃ±a",
        "name:de": "A CoruÃ±a",
        "name:el": "Î‘ ÎšÎ¿ÏÎ¿ÏÎ½Î¹Î±",
        "name:en": "A CoruÃ±a",
        "name:eo": "Korunjo",
        "name:es": "La CoruÃ±a",
        "name:et": "A CoruÃ±a",
        "name:eu": "CoruÃ±a",
        "name:fa": "Ú©ÙˆØ±ÙˆØ´Ø§",
        "name:fi": "A CoruÃ±a",
        "name:fr": "La Corogne",
        "name:ga": "Cathair na Cruinne",
        "name:gd": "CorÃ¹na",
        "name:gl": "A CoruÃ±a",
        "name:he": "×” ×§×•×¨×•× ×™×”",
        "name:hy": "Õ¡ Ô¿Õ¸Ö€Õ¸Ö‚Õ¶ÕµÕ¡",
        "name:ja": "ã‚¢ãƒ»ã‚³ãƒ«ãƒ¼ãƒ‹ãƒ£",
        "name:ka": "áƒ-áƒ™áƒáƒ áƒ£áƒœáƒ˜áƒ",
        "name:kk": "Ğ-ĞšĞ¾Ñ€ÑƒĞ½ÑŒÑ",
        "name:ko": "ë¼ì½”ë£¨ëƒ",
        "name:lt": "A Korunja",
        "name:mr": "à¤•à¥‹à¤°à¥à¤¨à¥à¤¯à¤¾",
        "name:oc": "A Coronha",
        "name:pl": "A CoruÃ±a",
        "name:pt": "A Corunha",
        "name:ru": "A-ĞšĞ¾Ñ€ÑƒĞ½ÑŒÑ",
        "name:sr": "ĞšĞ¾Ñ€ÑƒÑšĞ°",
        "name:th": "à¸²à¹‚à¸à¸£à¸¸à¸à¸à¸²",
        "name:uk": "A-ĞšĞ¾Ñ€ÑƒĞ½ÑŒÑ",
        "name:uz": "A-Korunya",
        "name:yue": "æ‹‰ç§‘é­¯å°¼äº",
        "name:zh": "æ‹‰ç§‘é­¯å°¼äº",
        "name:zh-Hans": "æ‹‰ç§‘é­¯å°¼äº",
        "name:zh-Hant": "æ‹‰ç§‘é²å°¼äºš",
        "official_name": "A CoruÃ±a",
        "old_name:en": "Corunna;The Groyne",
        "old_name:gl": "A CruÃ±a",
        "old_name:pt": "A Crunha",
        "place": "city",
        "population": "210076",
        "population:date": "2022",
        "ref:ine": "15030000101",
        "source": "catastro",
        "source:date": "2011-06",
        "source:ele": "MDT5",
        "source:name": "NomenclÃ¡tor GeogrÃ¡fico de Municipios y Entidades de PoblaciÃ³n",
        "source:name:pt": "www.agal-gz.org/corporativo/media/docsCL/toponimia.pdf",
        "wikidata": "Q6063659",
        "wikipedia": "gl:A CoruÃ±a"
      }
    },
    {
      "type": "node",
      "id": 1460569469,
      "lat": 37.215797,
      "lon": -7.4060169,
      "tags": {
        "capital": "8",
        "ele": "45",
        "name": "Ayamonte",
        "place": "city",
        "population": "16206",
        "population:date": "2022",
        "ref:ine": "21010000101",
        "source": "Instituto GeogrÃ¡fico Nacional",
        "source:date": "2011-06",
        "source:ele": "MDT5",
        "source:name": "NomenclÃ¡tor GeogrÃ¡fico de Municipios y Entidades de PoblaciÃ³n",
        "wikidata": "Q736872"
      }
    },
    {
      "type": "node",
      "id": 1470838297,
      "lat": 38.9675925,
      "lon": -0.1803423,
      "tags": {
        "capital": "8",
        "ele": "21",
        "name": "Gandia",
        "name:ca": "Gandia",
        "name:es": "GandÃ­a",
        "place": "city",
        "population": "60627",
        "population:date": "2022",
        "ref:ine": "46131000101",
        "source": "Instituto GeogrÃ¡fico Nacional",
        "source:date": "2011-06",
        "source:ele": "MDT5",
        "source:name": "NomenclÃ¡tor GeogrÃ¡fico de Municipios y Entidades de PoblaciÃ³n",
        "wikidata": "Q33532",
        "wikipedia": "ca:Gandia"
      }
    },
    {
      "type": "node",
      "id": 1470838471,
      "lat": 38.0931247,
      "lon": -3.6357207,
      "tags": {
        "capital": "8",
        "ele": "418",
        "name": "Linares",
        "name:lt": "Linaresas",
        "name:ru": "Ğ›Ğ¸Ğ½Ğ°Ñ€ĞµÑ",
        "name:uk": "Ğ›Ñ–Ğ½Ğ°Ñ€ĞµÑ",
        "place": "city",
        "population": "52394",
        "population:date": "2022",
        "ref:ine": "23055000501",
        "source": "Instituto GeogrÃ¡fico Nacional",
        "source:date": "2011-06",
        "source:ele": "MDT5",
        "source:name": "NomenclÃ¡tor GeogrÃ¡fico de Municipios y Entidades de PoblaciÃ³n",
        "wikidata": "Q281272",
        "wikipedia": "es:Linares (JaÃ©n)"
      }
    },
    {
      "type": "node",
      "id": 1470838626,
      "lat": 38.0856891,
      "lon": -0.9448805,
      "tags": {
        "admin_level": "9",
        "ele": "25",
        "heritage": "3",
        "heritage:operator": "Generalitat Valenciana",
        "name": "Orihuela",
        "name:ca": "Oriola",
        "name:es": "Orihuela",
        "name:ja": "ã‚ªãƒªã‚¦ã‚¨ãƒ©",
        "place": "city",
        "population": "31830",
        "population:date": "2022",
        "ref:ine": "03099002102",
        "source": "Instituto GeogrÃ¡fico Nacional",
        "source:date": "2011-06",
        "source:ele": "MDT5",
        "source:name": "NomenclÃ¡tor GeogrÃ¡fico de Municipios y Entidades de PoblaciÃ³n",
        "wikidata": "Q487786",
        "wikipedia": "ca:Oriola"
      }
    },
    {
      "type": "node",
      "id": 1470839505,
      "lat": 39.436668,
      "lon": -0.4656213,
      "tags": {
        "capital": "8",
        "ele": "46",
        "name": "Torrent",
        "name:ca": "Torrent",
        "name:es": "Torrente",
        "place": "city",
        "population": "68575",
        "population:date": "2022",
        "ref:ine": "46244000401",
        "source": "Instituto GeogrÃ¡fico Nacional",
        "source:date": "2011-06",
        "source:ele": "MDT5",
        "source:name": "NomenclÃ¡tor GeogrÃ¡fico de Municipios y Entidades de PoblaciÃ³n",
        "wikidata": "Q161945",
        "wikipedia": "ca:Torrent (Horta Sud)"
      }
    },
    {
      "type": "node",
      "id": 1679058496,
      "lat": 39.8560679,
      "lon": -4.0239568,
      "tags": {
        "capital": "4",
        "heritage": "1",
        "heritage:operator": "whc",
        "idee:name": "Toledo",
        "name": "Toledo",
        "name:ar": "Ø·Ù„ÙŠØ·Ù„Ø©",
        "name:be": "Ğ¢Ğ°Ğ»ĞµĞ´Ğ°",
        "name:ca": "Toledo",
        "name:el": "Î¤Î¿Î»Î­Î´Î¿",
        "name:en": "Toledo",
        "name:es": "Toledo",
        "name:eu": "Toledo",
        "name:fr": "TolÃ¨de",
        "name:ko": "í†¨ë ˆë„",
        "name:la": "Toletum",
        "name:lt": "Toledas",
        "name:oc": "Toleda",
        "name:pt": "Toledo",
        "name:ru": "Ğ¢Ğ¾Ğ»ĞµĞ´Ğ¾",
        "name:tr": "Tuleytula",
        "name:uk": "Ğ¢Ğ¾Ğ»ĞµĞ´Ğ¾",
        "place": "city",
        "population": "59330",
        "population:date": "2022",
        "ref:ine": "45168000103",
        "wikidata": "Q5836",
        "wikipedia": "es:Toledo"
      }
    },
    {
      "type": "node",
      "id": 2469923579,
      "lat": 42.1382539,
      "lon": -0.4080901,
      "tags": {
        "capital": "6",
        "ele": "483",
        "name": "Huesca",
        "name:an": "Uesca",
        "name:ar": "ÙˆØ´Ù‚Ø©",
        "name:be": "Ğ£ÑÑĞºĞ°",
        "name:bg": "Ğ£ĞµÑĞºĞ°",
        "name:ca": "Osca",
        "name:el": "ÎŸÏ…Î­ÏƒÎºÎ±",
        "name:en": "Huesca",
        "name:es": "Huesca",
        "name:fa": "Ù‡ÙˆØ¦Ø³Ú©Ø§",
        "name:fr": "Huesca",
        "name:he": "××•××¡×§×”",
        "name:hu": "Huesca",
        "name:ja": "ã‚¦ã‚¨ã‚¹ã‚«",
        "name:la": "Osca",
        "name:lt": "Hueska",
        "name:oc": "Ã’sca",
        "name:ru": "Ğ£ÑÑĞºĞ°",
        "name:sr": "Ğ£ĞµÑĞºĞ°",
        "name:uk": "Ğ£ĞµÑĞºĞ°",
        "name:zh": "éŸ¦æ–¯å¡",
        "place": "city",
        "population": "52494",
        "population:date": "2022",
        "ref:ine": "22125000801",
        "wikidata": "Q31916975",
        "wikipedia": "es:Huesca"
      }
    },
    {
      "type": "node",
      "id": 2697472985,
      "lat": 40.3081807,
      "lon": -3.7302679,
      "tags": {
        "capital": "8",
        "ele": "622",
        "name": "Getafe",
        "name:en": "Getafe",
        "name:hu": "Getafe",
        "name:ja": "ãƒ˜ã‚¿ãƒ•ã‚§",
        "name:ru": "Ğ¥ĞµÑ‚Ğ°Ñ„Ğµ",
        "name:zh": "èµ«å¡”è´¹",
        "place": "city",
        "population": "154173",
        "population:date": "2022",
        "population:source": "Instituto Nacional de EstadÃ­stica",
        "ref:ine": "28065000301",
        "wikidata": "Q8802",
        "wikipedia": "es:Getafe"
      }
    },
    {
      "type": "node",
      "id": 3230345391,
      "lat": 43.3224219,
      "lon": -1.9838889,
      "tags": {
        "alt_name:el": "ÎÏ„Î¿Î½ÏŒÏƒÏ„Î¹Î±",
        "capital": "6",
        "ele": "7",
        "name": "Donostia / San SebastiÃ¡n",
        "name:ar": "Ø³Ø§Ù† Ø³ÙŠØ¨Ø§Ø³ØªÙŠØ§Ù†",
        "name:be": "Ğ¡Ğ°Ğ½-Ğ¡ĞµĞ±Ğ°ÑÑ†ÑŒÑĞ½",
        "name:br": "Donostia",
        "name:ca": "Sant SebastiÃ ",
        "name:el": "Î£Î±Î½ Î£ÎµÎ¼Ï€Î±ÏƒÏ„Î¹Î¬Î½",
        "name:es": "San SebastiÃ¡n",
        "name:et": "Donostia",
        "name:eu": "Donostia",
        "name:fr": "Saint-SÃ©bastien",
        "name:hu": "Donostia-San SebastiÃ¡n",
        "name:lt": "San Sebastianas",
        "name:oc": "Sant Sebastian",
        "name:ru": "Ğ”Ğ¾Ğ½Ğ¾ÑÑ‚Ğ¸Ñ-Ğ¡Ğ°Ğ½-Ğ¡ĞµĞ±Ğ°ÑÑ‚ÑŒÑĞ½",
        "name:zh-Hans": "åœ£å¡ç“¦æ–¯è’‚å®‰",
        "name:zh-Hant": "å¤šè‹¥æ–¯è¿ªäº",
        "place": "city",
        "population": "183455",
        "population:date": "2022",
        "ref:ine": "20069000501",
        "source:name:br": "same as name",
        "source:name:oc": "ieo-bdtopoc",
        "website": "http://www.donostia.org/",
        "wikidata": "Q10313",
        "wikipedia": "es:San SebastiÃ¡n",
        "wikipedia:es": "San SebastiÃ¡n",
        "wikipedia:eu": "Donostia"
      }
    },
    {
      "type": "node",
      "id": 3763482580,
      "lat": 36.6816936,
      "lon": -6.1377402,
      "tags": {
        "alt_name": "Jerez",
        "alt_name:ar": "Ø®ÙŠØ±ÙŠØ²;Ø®ÙŠØ±ÙŠØ² Ø¯ÙŠ Ù„Ø§ ÙØ±ÙˆÙ†ØªÙŠØ±Ø§",
        "alt_name:el": "Î§ÎµÏÎ­Î¸",
        "alt_name:fr": "Jerez de la Frontera",
        "alt_name:lt": "Cheres",
        "alt_name:ru": "Ğ¥ĞµÑ€ĞµÑ",
        "capital": "7",
        "ele": "56",
        "heritage": "3",
        "heritage:operator": "Junta de AndalucÃ­a",
        "idee:name": "Jerez de la Frontera",
        "ine:municipio": "11020",
        "name": "Jerez de la Frontera",
        "name:ar": "Ø´Ø±ÙŠØ´",
        "name:de": "Jerez de la Frontera",
        "name:el": "Î§ÎµÏÎ­Î¸ Î½Ï„Îµ Î»Î± Î¦ÏÎ¿Î½Ï„Î­ÏÎ±",
        "name:en": "Jerez",
        "name:fr": "XÃ©rÃ¨s",
        "name:lt": "Cheres de la Frontera",
        "name:ru": "Ğ¥ĞµÑ€ĞµÑ-Ğ´Ğµ-Ğ»Ğ°-Ğ¤Ñ€Ğ¾Ğ½Ñ‚ĞµÑ€Ğ°",
        "place": "city",
        "population": "212730",
        "population:date": "2022",
        "ref:ine": "11020001401",
        "source:population": "INE 2022",
        "website": "https://www.jerez.es/",
        "wikidata": "Q12303",
        "wikipedia": "es:Jerez de la Frontera"
      }
    }
  ]
}
